{"crs": {"type": "name", "properties": {"name": "urn:ogc:def:crs:OGC:1.3:CRS84"}}, "name": "nodes", "type": "FeatureCollection", "features": [{"type": "Feature", "geometry": {"type": "Point", "coordinates": [2.17755174, 41.37647462]}, "properties": {"pph": 400, "name": "Colom - La Rambla", "interval": 9}}, {"type": "Feature", "geometry": {"type": "Point", "coordinates": [2.17042272, 41.38535983]}, "properties": {"pph": 400, "name": "La Rambla - Pl Catalunya", "interval": 9}}, {"type": "Feature", "geometry": {"type": "Point", "coordinates": [2.17307649, 41.38161062]}, "properties": {"pph": 400, "name": "La Rambla - Liceu", "interval": 9}}, {"type": "Feature", "geometry": {"type": "Point", "coordinates": [2.17561798, 41.37872576]}, "properties": {"pph": 400, "name": "La Rambla - Pl del Teatre", "interval": 9}}, {"type": "Feature", "geometry": {"type": "Point", "coordinates": [2.175823, 41.377785]}, "properties": {"pph": 400, "name": "La Rambla - Santa M\u00f2nica", "interval": 9}}, {"type": "Feature", "geometry": {"type": "Point", "coordinates": [2.170125, 41.385053]}, "properties": {"pph": 400, "name": "La Rambla - Font de Canaletes", "interval": 9}}, {"type": "Feature", "geometry": {"type": "Point", "coordinates": [2.172813, 41.381421]}, "properties": {"pph": 400, "name": "La Rambla - La Boqueria", "interval": 9}}, {"type": "Feature", "geometry": {"type": "Point", "coordinates": [2.178255, 41.376055]}, "properties": {"pph": 400, "name": "La Rambla - Colom", "interval": 9}}, {"type": "Feature", "geometry": {"type": "Point", "coordinates": [2.17528, 41.37667]}, "properties": {"pph": 400, "name": "Drassanes", "interval": 9}}, {"type": "Feature", "geometry": {"type": "Point", "coordinates": [2.17333, 41.38083]}, "properties": {"pph": 400, "name": "Liceu", "interval": 9}}, {"type": "Feature", "geometry": {"type": "Point", "coordinates": [2.17806, 41.38361]}, "properties": {"pph": 400, "name": "Jaume I", "interval": 9}}, {"type": "Feature", "geometry": {"type": "Point", "coordinates": [2.17739, 41.385071]}, "properties": {"pph": 400, "name": "Via Laietana - Pl Ramon Berenguer", "interval": 9}}, {"type": "Feature", "geometry": {"type": "Point", "coordinates": [2.17727803, 41.38496338]}, "properties": {"pph": 400, "name": "Via Laietana - Pl Ramon Berenguer", "interval": 9}}, {"type": "Feature", "geometry": {"type": "Point", "coordinates": [2.170845, 41.386435]}, "properties": {"pph": 400, "name": "Pl Catalunya - Portal de l'\u00c0ngel", "interval": 9}}, {"type": "Feature", "geometry": {"type": "Point", "coordinates": [2.178442, 41.3767]}, "properties": {"pph": 400, "name": "Portal de la Pau", "interval": 9}}, {"type": "Feature", "geometry": {"type": "Point", "coordinates": [2.16982774, 41.38621908]}, "properties": {"pph": 400, "name": "Pl. Catalunya - Pelai", "interval": 9}}]}