{
  "type": "FeatureCollection",
  "features": [
    {
      "type": "Feature",
      "properties": {
        "name": "Colom",
        "temp_summer": 28.2,
        "temp_normalized": 0.7999999999999995,
        "ndvi": 0.12,
        "heat_risk": "high"
      },
      "geometry": {
        "type": "Polygon",
        "coordinates": [
          [
            [
              2.1768,
              41.3765
            ],
            [
              2.1772,
              41.3771928
            ],
            [
              2.178,
              41.3771928
            ],
            [
              2.1784,
              41.3765
            ],
            [
              2.178,
              41.3758072
            ],
            [
              2.1772,
              41.3758072
            ],
            [
              2.1768,
              41.3765
            ]
          ]
        ]
      }
    },
    {
      "type": "Feature",
      "properties": {
        "name": "Drassanes",
        "temp_summer": 28.0,
        "temp_normalized": 0.6666666666666666,
        "ndvi": 0.14,
        "heat_risk": "high"
      },
      "geometry": {
        "type": "Polygon",
        "coordinates": [
          [
            [
              2.1750000000000003,
              41.3778
            ],
            [
              2.1754000000000002,
              41.378492800000004
            ],
            [
              2.1762,
              41.378492800000004
            ],
            [
              2.1766,
              41.3778
            ],
            [
              2.1762,
              41.3771072
            ],
            [
              2.1754000000000002,
              41.3771072
            ],
            [
              2.1750000000000003,
              41.3778
            ]
          ]
        ]
      }
    },
    {
      "type": "Feature",
      "properties": {
        "name": "Santa Monica",
        "temp_summer": 27.9,
        "temp_normalized": 0.5999999999999991,
        "ndvi": 0.15,
        "heat_risk": "high"
      },
      "geometry": {
        "type": "Polygon",
        "coordinates": [
          [
            [
              2.1748000000000003,
              41.3787
            ],
            [
              2.1752000000000002,
              41.379392800000005
            ],
            [
              2.176,
              41.379392800000005
            ],
            [
              2.1764,
              41.3787
            ],
            [
              2.176,
              41.3780072
            ],
            [
              2.1752000000000002,
              41.3780072
            ],
            [
              2.1748000000000003,
              41.3787
            ]
          ]
        ]
      }
    },
    {
      "type": "Feature",
      "properties": {
        "name": "Teatre",
        "temp_summer": 27.8,
        "temp_normalized": 0.5333333333333338,
        "ndvi": 0.16,
        "heat_risk": "medium"
      },
      "geometry": {
        "type": "Polygon",
        "coordinates": [
          [
            [
              2.1745,
              41.3798
            ],
            [
              2.1749,
              41.380492800000006
            ],
            [
              2.1757,
              41.380492800000006
            ],
            [
              2.1761,
              41.3798
            ],
            [
              2.1757,
              41.3791072
            ],
            [
              2.1749,
              41.3791072
            ],
            [
              2.1745,
              41.3798
            ]
          ]
        ]
      }
    },
    {
      "type": "Feature",
      "properties": {
        "name": "Liceu",
        "temp_summer": 27.6,
        "temp_normalized": 0.40000000000000097,
        "ndvi": 0.18,
        "heat_risk": "medium"
      },
      "geometry": {
        "type": "Polygon",
        "coordinates": [
          [
            [
              2.1725,
              41.3808
            ],
            [
              2.1729,
              41.381492800000004
            ],
            [
              2.1736999999999997,
              41.381492800000004
            ],
            [
              2.1740999999999997,
              41.3808
            ],
            [
              2.1736999999999997,
              41.3801072
            ],
            [
              2.1729,
              41.3801072
            ],
            [
              2.1725,
              41.3808
            ]
          ]
        ]
      }
    },
    {
      "type": "Feature",
      "properties": {
        "name": "Boqueria",
        "temp_summer": 27.5,
        "temp_normalized": 0.3333333333333333,
        "ndvi": 0.2,
        "heat_risk": "low"
      },
      "geometry": {
        "type": "Polygon",
        "coordinates": [
          [
            [
              2.172,
              41.3814
            ],
            [
              2.1724,
              41.3820928
            ],
            [
              2.1732,
              41.3820928
            ],
            [
              2.1736,
              41.3814
            ],
            [
              2.1732,
              41.380707199999996
            ],
            [
              2.1724,
              41.380707199999996
            ],
            [
              2.172,
              41.3814
            ]
          ]
        ]
      }
    },
    {
      "type": "Feature",
      "properties": {
        "name": "Canaletes",
        "temp_summer": 27.3,
        "temp_normalized": 0.20000000000000048,
        "ndvi": 0.22,
        "heat_risk": "low"
      },
      "geometry": {
        "type": "Polygon",
        "coordinates": [
          [
            [
              2.1697,
              41.3848
            ],
            [
              2.1701,
              41.3854928
            ],
            [
              2.1709,
              41.3854928
            ],
            [
              2.1713,
              41.3848
            ],
            [
              2.1709,
              41.384107199999995
            ],
            [
              2.1701,
              41.384107199999995
            ],
            [
              2.1697,
              41.3848
            ]
          ]
        ]
      }
    },
    {
      "type": "Feature",
      "properties": {
        "name": "Pl Catalunya",
        "temp_summer": 27.2,
        "temp_normalized": 0.13333333333333286,
        "ndvi": 0.24,
        "heat_risk": "low"
      },
      "geometry": {
        "type": "Polygon",
        "coordinates": [
          [
            [
              2.1696,
              41.3854
            ],
            [
              2.17,
              41.3860928
            ],
            [
              2.1708,
              41.3860928
            ],
            [
              2.1712,
              41.3854
            ],
            [
              2.1708,
              41.384707199999994
            ],
            [
              2.17,
              41.384707199999994
            ],
            [
              2.1696,
              41.3854
            ]
          ]
        ]
      }
    },
    {
      "type": "Feature",
      "properties": {
        "name": "Interp_0_0.33",
        "temp_summer": 28.2,
        "temp_normalized": 0.77,
        "ndvi": 0.13,
        "heat_risk": "high"
      },
      "geometry": {
        "type": "Polygon",
        "coordinates": [
          [
            [
              2.176366,
              41.376929
            ],
            [
              2.176686,
              41.377483399999996
            ],
            [
              2.177326,
              41.377483399999996
            ],
            [
              2.177646,
              41.376929
            ],
            [
              2.177326,
              41.3763746
            ],
            [
              2.176686,
              41.3763746
            ],
            [
              2.176366,
              41.376929
            ]
          ]
        ]
      }
    },
    {
      "type": "Feature",
      "properties": {
        "name": "Interp_0_0.67",
        "temp_summer": 28.0,
        "temp_normalized": 0.65,
        "ndvi": 0.13,
        "heat_risk": "high"
      },
      "geometry": {
        "type": "Polygon",
        "coordinates": [
          [
            [
              2.175754,
              41.377371000000004
            ],
            [
              2.1760740000000003,
              41.3779254
            ],
            [
              2.176714,
              41.3779254
            ],
            [
              2.1770340000000004,
              41.377371000000004
            ],
            [
              2.176714,
              41.376816600000005
            ],
            [
              2.1760740000000003,
              41.376816600000005
            ],
            [
              2.175754,
              41.377371000000004
            ]
          ]
        ]
      }
    },
    {
      "type": "Feature",
      "properties": {
        "name": "Interp_1_0.33",
        "temp_summer": 27.9,
        "temp_normalized": 0.61,
        "ndvi": 0.14,
        "heat_risk": "high"
      },
      "geometry": {
        "type": "Polygon",
        "coordinates": [
          [
            [
              2.175094,
              41.378097000000004
            ],
            [
              2.1754140000000004,
              41.3786514
            ],
            [
              2.176054,
              41.3786514
            ],
            [
              2.1763740000000005,
              41.378097000000004
            ],
            [
              2.176054,
              41.377542600000005
            ],
            [
              2.1754140000000004,
              41.377542600000005
            ],
            [
              2.175094,
              41.378097000000004
            ]
          ]
        ]
      }
    },
    {
      "type": "Feature",
      "properties": {
        "name": "Interp_1_0.67",
        "temp_summer": 27.9,
        "temp_normalized": 0.59,
        "ndvi": 0.15,
        "heat_risk": "high"
      },
      "geometry": {
        "type": "Polygon",
        "coordinates": [
          [
            [
              2.175026,
              41.378403
            ],
            [
              2.1753460000000002,
              41.3789574
            ],
            [
              2.175986,
              41.3789574
            ],
            [
              2.1763060000000003,
              41.378403
            ],
            [
              2.175986,
              41.3778486
            ],
            [
              2.1753460000000002,
              41.3778486
            ],
            [
              2.175026,
              41.378403
            ]
          ]
        ]
      }
    },
    {
      "type": "Feature",
      "properties": {
        "name": "Interp_2_0.33",
        "temp_summer": 27.9,
        "temp_normalized": 0.61,
        "ndvi": 0.15,
        "heat_risk": "high"
      },
      "geometry": {
        "type": "Polygon",
        "coordinates": [
          [
            [
              2.174861,
              41.379063
            ],
            [
              2.1751810000000003,
              41.3796174
            ],
            [
              2.175821,
              41.3796174
            ],
            [
              2.1761410000000003,
              41.379063
            ],
            [
              2.175821,
              41.3785086
            ],
            [
              2.1751810000000003,
              41.3785086
            ],
            [
              2.174861,
              41.379063
            ]
          ]
        ]
      }
    },
    {
      "type": "Feature",
      "properties": {
        "name": "Interp_2_0.67",
        "temp_summer": 27.9,
        "temp_normalized": 0.58,
        "ndvi": 0.16,
        "heat_risk": "high"
      },
      "geometry": {
        "type": "Polygon",
        "coordinates": [
          [
            [
              2.174759,
              41.379437
            ],
            [
              2.175079,
              41.3799914
            ],
            [
              2.175719,
              41.3799914
            ],
            [
              2.1760390000000003,
              41.379437
            ],
            [
              2.175719,
              41.378882600000004
            ],
            [
              2.175079,
              41.378882600000004
            ],
            [
              2.174759,
              41.379437
            ]
          ]
        ]
      }
    },
    {
      "type": "Feature",
      "properties": {
        "name": "Interp_3_0.33",
        "temp_summer": 27.8,
        "temp_normalized": 0.54,
        "ndvi": 0.17,
        "heat_risk": "high"
      },
      "geometry": {
        "type": "Polygon",
        "coordinates": [
          [
            [
              2.174,
              41.38013
            ],
            [
              2.1743200000000003,
              41.3806844
            ],
            [
              2.17496,
              41.3806844
            ],
            [
              2.1752800000000003,
              41.38013
            ],
            [
              2.17496,
              41.3795756
            ],
            [
              2.1743200000000003,
              41.3795756
            ],
            [
              2.174,
              41.38013
            ]
          ]
        ]
      }
    },
    {
      "type": "Feature",
      "properties": {
        "name": "Interp_3_0.67",
        "temp_summer": 27.6,
        "temp_normalized": 0.39,
        "ndvi": 0.17,
        "heat_risk": "medium"
      },
      "geometry": {
        "type": "Polygon",
        "coordinates": [
          [
            [
              2.1733199999999995,
              41.38047
            ],
            [
              2.17364,
              41.3810244
            ],
            [
              2.1742799999999995,
              41.3810244
            ],
            [
              2.1746,
              41.38047
            ],
            [
              2.1742799999999995,
              41.379915600000004
            ],
            [
              2.17364,
              41.379915600000004
            ],
            [
              2.1733199999999995,
              41.38047
            ]
          ]
        ]
      }
    },
    {
      "type": "Feature",
      "properties": {
        "name": "Interp_4_0.33",
        "temp_summer": 27.6,
        "temp_normalized": 0.37,
        "ndvi": 0.19,
        "heat_risk": "medium"
      },
      "geometry": {
        "type": "Polygon",
        "coordinates": [
          [
            [
              2.1724949999999996,
              41.380998
            ],
            [
              2.172815,
              41.3815524
            ],
            [
              2.1734549999999997,
              41.3815524
            ],
            [
              2.173775,
              41.380998
            ],
            [
              2.1734549999999997,
              41.3804436
            ],
            [
              2.172815,
              41.3804436
            ],
            [
              2.1724949999999996,
              41.380998
            ]
          ]
        ]
      }
    },
    {
      "type": "Feature",
      "properties": {
        "name": "Interp_4_0.67",
        "temp_summer": 27.4,
        "temp_normalized": 0.29,
        "ndvi": 0.19,
        "heat_risk": "low"
      },
      "geometry": {
        "type": "Polygon",
        "coordinates": [
          [
            [
              2.172325,
              41.381202
            ],
            [
              2.172645,
              41.3817564
            ],
            [
              2.173285,
              41.3817564
            ],
            [
              2.1736050000000002,
              41.381202
            ],
            [
              2.173285,
              41.3806476
            ],
            [
              2.172645,
              41.3806476
            ],
            [
              2.172325,
              41.381202
            ]
          ]
        ]
      }
    },
    {
      "type": "Feature",
      "properties": {
        "name": "Interp_5_0.33",
        "temp_summer": 27.4,
        "temp_normalized": 0.25,
        "ndvi": 0.21,
        "heat_risk": "low"
      },
      "geometry": {
        "type": "Polygon",
        "coordinates": [
          [
            [
              2.171401,
              41.382522
            ],
            [
              2.1717210000000002,
              41.3830764
            ],
            [
              2.172361,
              41.3830764
            ],
            [
              2.1726810000000003,
              41.382522
            ],
            [
              2.172361,
              41.3819676
            ],
            [
              2.1717210000000002,
              41.3819676
            ],
            [
              2.171401,
              41.382522
            ]
          ]
        ]
      }
    },
    {
      "type": "Feature",
      "properties": {
        "name": "Interp_5_0.67",
        "temp_summer": 27.4,
        "temp_normalized": 0.24,
        "ndvi": 0.21,
        "heat_risk": "low"
      },
      "geometry": {
        "type": "Polygon",
        "coordinates": [
          [
            [
              2.170619,
              41.383677999999996
            ],
            [
              2.170939,
              41.384232399999995
            ],
            [
              2.171579,
              41.384232399999995
            ],
            [
              2.1718990000000002,
              41.383677999999996
            ],
            [
              2.171579,
              41.3831236
            ],
            [
              2.170939,
              41.3831236
            ],
            [
              2.170619,
              41.383677999999996
            ]
          ]
        ]
      }
    },
    {
      "type": "Feature",
      "properties": {
        "name": "Interp_6_0.33",
        "temp_summer": 27.2,
        "temp_normalized": 0.11,
        "ndvi": 0.23,
        "heat_risk": "low"
      },
      "geometry": {
        "type": "Polygon",
        "coordinates": [
          [
            [
              2.1698269999999997,
              41.384997999999996
            ],
            [
              2.170147,
              41.385552399999995
            ],
            [
              2.170787,
              41.385552399999995
            ],
            [
              2.171107,
              41.384997999999996
            ],
            [
              2.170787,
              41.3844436
            ],
            [
              2.170147,
              41.3844436
            ],
            [
              2.1698269999999997,
              41.384997999999996
            ]
          ]
        ]
      }
    },
    {
      "type": "Feature",
      "properties": {
        "name": "Interp_6_0.67",
        "temp_summer": 27.2,
        "temp_normalized": 0.12,
        "ndvi": 0.23,
        "heat_risk": "low"
      },
      "geometry": {
        "type": "Polygon",
        "coordinates": [
          [
            [
              2.169793,
              41.385202
            ],
            [
              2.170113,
              41.3857564
            ],
            [
              2.170753,
              41.3857564
            ],
            [
              2.1710730000000003,
              41.385202
            ],
            [
              2.170753,
              41.3846476
            ],
            [
              2.170113,
              41.3846476
            ],
            [
              2.169793,
              41.385202
            ]
          ]
        ]
      }
    }
  ]
}