{"type": "FeatureCollection", "name": "furniture", "crs": {"type": "name", "properties": {"name": "urn:ogc:def:crs:OGC:1.3:CRS84"}}, "features": [{"type": "Feature", "geometry": {"type": "Point", "coordinates": [2.17398, 41.3771]}, "properties": {"dia": "2", "type": "bicycle_parking"}}, {"type": "Feature", "geometry": {"type": "Point", "coordinates": [2.1747, 41.37932]}, "properties": {"dia": "2", "type": "bicycle_parking"}}, {"type": "Feature", "geometry": {"type": "Point", "coordinates": [2.17259, 41.37698]}, "properties": {"dia": "2", "type": "bicycle_parking"}}, {"type": "Feature", "geometry": {"type": "Point", "coordinates": [2.17217, 41.3756]}, "properties": {"dia": "2", "type": "bicycle_parking"}}, {"type": "Feature", "geometry": {"type": "Point", "coordinates": [2.17159, 41.37721]}, "properties": {"dia": "2", "type": "bicycle_parking"}}, {"type": "Feature", "geometry": {"type": "Point", "coordinates": [2.17426, 41.37985]}, "properties": {"dia": "2", "type": "bicycle_parking"}}, {"type": "Feature", "geometry": {"type": "Point", "coordinates": [2.17316, 41.38069]}, "properties": {"dia": "2", "type": "bicycle_parking"}}, {"type": "Feature", "geometry": {"type": "Point", "coordinates": [2.17381, 41.37638]}, "properties": {"dia": "2", "type": "bicycle_parking"}}, {"type": "Feature", "geometry": {"type": "Point", "coordinates": [2.17383, 41.37681]}, "properties": {"dia": "2", "type": "bicycle_parking"}}, {"type": "Feature", "geometry": {"type": "Point", "coordinates": [2.17725, 41.37559]}, "properties": {"dia": "2", "type": "bicycle_parking"}}, {"type": "Feature", "geometry": {"type": "Point", "coordinates": [2.17479, 41.37658]}, "properties": {"dia": "2", "type": "bicycle_parking"}}, {"type": "Feature", "geometry": {"type": "Point", "coordinates": [2.17568, 41.37756]}, "properties": {"dia": "2", "type": "bicycle_parking"}}, {"type": "Feature", "geometry": {"type": "Point", "coordinates": [2.17671, 41.37664]}, "properties": {"dia": "2", "type": "bicycle_parking"}}, {"type": "Feature", "geometry": {"type": "Point", "coordinates": [2.17585, 41.37706]}, "properties": {"dia": "2", "type": "bicycle_parking"}}, {"type": "Feature", "geometry": {"type": "Point", "coordinates": [2.175667, 41.375962]}, "properties": {"dia": "2", "type": "bicycle_parking"}}, {"type": "Feature", "geometry": {"type": "Point", "coordinates": [2.1699577, 41.3777992]}, "properties": {"dia": "2", "type": "bicycle_parking"}}, {"type": "Feature", "geometry": {"type": "Point", "coordinates": [2.1697363, 41.3767748]}, "properties": {"dia": "2", "type": "bicycle_parking"}}, {"type": "Feature", "geometry": {"type": "Point", "coordinates": [2.17036, 41.37745]}, "properties": {"dia": "2", "type": "bicycle_parking"}}, {"type": "Feature", "geometry": {"type": "Point", "coordinates": [2.17042, 41.37751]}, "properties": {"dia": "2", "type": "bicycle_parking"}}, {"type": "Feature", "geometry": {"type": "Point", "coordinates": [2.17176, 41.37702]}, "properties": {"dia": "2", "type": "bicycle_parking"}}, {"type": "Feature", "geometry": {"type": "Point", "coordinates": [2.16962, 41.37666]}, "properties": {"dia": "2", "type": "bicycle_parking"}}, {"type": "Feature", "geometry": {"type": "Point", "coordinates": [2.17086, 41.37743]}, "properties": {"dia": "2", "type": "bicycle_parking"}}, {"type": "Feature", "geometry": {"type": "Point", "coordinates": [2.17102, 41.37733]}, "properties": {"dia": "2", "type": "bicycle_parking"}}, {"type": "Feature", "geometry": {"type": "Point", "coordinates": [2.171904, 41.3792909]}, "properties": {"dia": "2", "type": "bicycle_parking"}}, {"type": "Feature", "geometry": {"type": "Point", "coordinates": [2.17257, 41.38106]}, "properties": {"dia": "2", "type": "bicycle_parking"}}, {"type": "Feature", "geometry": {"type": "Point", "coordinates": [2.17136, 41.37983]}, "properties": {"dia": "2", "type": "bicycle_parking"}}, {"type": "Feature", "geometry": {"type": "Point", "coordinates": [2.17085, 41.37801]}, "properties": {"dia": "2", "type": "bicycle_parking"}}, {"type": "Feature", "geometry": {"type": "Point", "coordinates": [2.17037, 41.37809]}, "properties": {"dia": "2", "type": "bicycle_parking"}}, {"type": "Feature", "geometry": {"type": "Point", "coordinates": [2.17124, 41.37888]}, "properties": {"dia": "2", "type": "bicycle_parking"}}, {"type": "Feature", "geometry": {"type": "Point", "coordinates": [2.16982, 41.37938]}, "properties": {"dia": "2", "type": "bicycle_parking"}}, {"type": "Feature", "geometry": {"type": "Point", "coordinates": [2.171358, 41.3787287]}, "properties": {"dia": "2", "type": "bicycle_parking"}}, {"type": "Feature", "geometry": {"type": "Point", "coordinates": [2.1714323, 41.3786323]}, "properties": {"dia": "2", "type": "bicycle_parking"}}, {"type": "Feature", "geometry": {"type": "Point", "coordinates": [2.1716368, 41.3808254]}, "properties": {"dia": "2", "type": "bicycle_parking"}}, {"type": "Feature", "geometry": {"type": "Point", "coordinates": [2.17187, 41.38234]}, "properties": {"dia": "2", "type": "bicycle_parking"}}, {"type": "Feature", "geometry": {"type": "Point", "coordinates": [2.17083, 41.38059]}, "properties": {"dia": "2", "type": "bicycle_parking"}}, {"type": "Feature", "geometry": {"type": "Point", "coordinates": [2.1731076, 41.3812608]}, "properties": {"dia": "2", "type": "bicycle_parking"}}, {"type": "Feature", "geometry": {"type": "Point", "coordinates": [2.17193, 41.38199]}, "properties": {"dia": "2", "type": "bicycle_parking"}}, {"type": "Feature", "geometry": {"type": "Point", "coordinates": [2.1695854, 41.3817111]}, "properties": {"dia": "2", "type": "bicycle_parking"}}, {"type": "Feature", "geometry": {"type": "Point", "coordinates": [2.1701186, 41.3807004]}, "properties": {"dia": "2", "type": "bicycle_parking"}}, {"type": "Feature", "geometry": {"type": "Point", "coordinates": [2.17248, 41.38192]}, "properties": {"dia": "2", "type": "bicycle_parking"}}, {"type": "Feature", "geometry": {"type": "Point", "coordinates": [2.16978, 41.38068]}, "properties": {"dia": "2", "type": "bicycle_parking"}}, {"type": "Feature", "geometry": {"type": "Point", "coordinates": [2.1710709, 41.3813877]}, "properties": {"dia": "2", "type": "bicycle_parking"}}, {"type": "Feature", "geometry": {"type": "Point", "coordinates": [2.17069, 41.38067]}, "properties": {"dia": "2", "type": "bicycle_parking"}}, {"type": "Feature", "geometry": {"type": "Point", "coordinates": [2.1696267, 41.3816054]}, "properties": {"dia": "2", "type": "bicycle_parking"}}, {"type": "Feature", "geometry": {"type": "Point", "coordinates": [2.16967, 41.38379]}, "properties": {"dia": "2", "type": "bicycle_parking"}}, {"type": "Feature", "geometry": {"type": "Point", "coordinates": [2.16964, 41.38391]}, "properties": {"dia": "2", "type": "bicycle_parking"}}, {"type": "Feature", "geometry": {"type": "Point", "coordinates": [2.1702, 41.38314]}, "properties": {"dia": "2", "type": "bicycle_parking"}}, {"type": "Feature", "geometry": {"type": "Point", "coordinates": [2.1697495, 41.3839733]}, "properties": {"dia": "2", "type": "bicycle_parking"}}, {"type": "Feature", "geometry": {"type": "Point", "coordinates": [2.16972, 41.38381]}, "properties": {"dia": "2", "type": "bicycle_parking"}}, {"type": "Feature", "geometry": {"type": "Point", "coordinates": [2.17003, 41.38529]}, "properties": {"dia": "2", "type": "bicycle_parking"}}, {"type": "Feature", "geometry": {"type": "Point", "coordinates": [2.1756673121581493, 41.37581000430209]}, "properties": {"type": "cooling_station", "dia": "2"}}, {"type": "Feature", "geometry": {"type": "Point", "coordinates": [2.175010536891231, 41.376189148504736]}, "properties": {"type": "bench", "dia": "2"}}, {"type": "Feature", "geometry": {"type": "Point", "coordinates": [2.175345372718241, 41.376823538493746]}, "properties": {"type": "bench", "dia": "2"}}, {"type": "Feature", "geometry": {"type": "Point", "coordinates": [2.1750585910149387, 41.376812713071786]}, "properties": {"type": "bench", "dia": "2"}}, {"type": "Feature", "geometry": {"type": "Point", "coordinates": [2.1744290322364312, 41.377335475448575]}, "properties": {"type": "bench", "dia": "2"}}, {"type": "Feature", "geometry": {"type": "Point", "coordinates": [2.17465682740886, 41.37775307451183]}, "properties": {"type": "shade_structure", "dia": "3"}}, {"type": "Feature", "geometry": {"type": "Point", "coordinates": [2.174064528746449, 41.37803570627355]}, "properties": {"type": "bench", "dia": "2"}}, {"type": "Feature", "geometry": {"type": "Point", "coordinates": [2.1745272355072225, 41.37819719705988]}, "properties": {"type": "shade_structure", "dia": "3"}}, {"type": "Feature", "geometry": {"type": "Point", "coordinates": [2.173841633953155, 41.378528858466595]}, "properties": {"type": "cooling_station", "dia": "2"}}, {"type": "Feature", "geometry": {"type": "Point", "coordinates": [2.1733726523318238, 41.378951970920255]}, "properties": {"type": "cooling_station", "dia": "2"}}, {"type": "Feature", "geometry": {"type": "Point", "coordinates": [2.1740836599062834, 41.37937482374588]}, "properties": {"type": "bench", "dia": "2"}}, {"type": "Feature", "geometry": {"type": "Point", "coordinates": [2.173759011477366, 41.37968115790325]}, "properties": {"type": "shade_structure", "dia": "3"}}, {"type": "Feature", "geometry": {"type": "Point", "coordinates": [2.172794560237694, 41.37991727131256]}, "properties": {"type": "cooling_station", "dia": "2"}}, {"type": "Feature", "geometry": {"type": "Point", "coordinates": [2.173209489240975, 41.38041516206782]}, "properties": {"type": "bench", "dia": "2"}}, {"type": "Feature", "geometry": {"type": "Point", "coordinates": [2.1731268493156146, 41.38077589400298]}, "properties": {"type": "bench", "dia": "2"}}, {"type": "Feature", "geometry": {"type": "Point", "coordinates": [2.1731763812652183, 41.3811465934667]}, "properties": {"type": "shade_structure", "dia": "3"}}, {"type": "Feature", "geometry": {"type": "Point", "coordinates": [2.1723002349903986, 41.38138760711104]}, "properties": {"type": "cooling_station", "dia": "2"}}, {"type": "Feature", "geometry": {"type": "Point", "coordinates": [2.1719785182499205, 41.381608774946756]}, "properties": {"type": "cooling_station", "dia": "2"}}, {"type": "Feature", "geometry": {"type": "Point", "coordinates": [2.1724421843761506, 41.38207341906621]}, "properties": {"type": "bench", "dia": "2"}}, {"type": "Feature", "geometry": {"type": "Point", "coordinates": [2.172147623873467, 41.38220178879261]}, "properties": {"type": "water_fountain", "dia": "2"}}, {"type": "Feature", "geometry": {"type": "Point", "coordinates": [2.1714294163258474, 41.38261844884337]}, "properties": {"type": "water_fountain", "dia": "2"}}, {"type": "Feature", "geometry": {"type": "Point", "coordinates": [2.171871537101188, 41.38313714076807]}, "properties": {"type": "bench", "dia": "2"}}, {"type": "Feature", "geometry": {"type": "Point", "coordinates": [2.171141524353023, 41.383146173430895]}, "properties": {"type": "cooling_station", "dia": "2"}}, {"type": "Feature", "geometry": {"type": "Point", "coordinates": [2.17116473107776, 41.38349314210875]}, "properties": {"type": "cooling_station", "dia": "2"}}, {"type": "Feature", "geometry": {"type": "Point", "coordinates": [2.170755151852865, 41.3839996925038]}, "properties": {"type": "shade_structure", "dia": "3"}}, {"type": "Feature", "geometry": {"type": "Point", "coordinates": [2.1704881125751974, 41.38418918546114]}, "properties": {"type": "cooling_station", "dia": "2"}}, {"type": "Feature", "geometry": {"type": "Point", "coordinates": [2.1710297499073157, 41.384638040197586]}, "properties": {"type": "shade_structure", "dia": "3"}}, {"type": "Feature", "geometry": {"type": "Point", "coordinates": [2.1703843957324565, 41.38519893031119]}, "properties": {"type": "water_fountain", "dia": "2"}}, {"type": "Feature", "geometry": {"type": "Point", "coordinates": [2.1703780982190786, 41.3851696970982]}, "properties": {"type": "bench", "dia": "2"}}, {"type": "Feature", "geometry": {"type": "Point", "coordinates": [2.170616656824933, 41.38552780319441]}, "properties": {"type": "water_fountain", "dia": "2"}}]}