{"crs": {"type": "name", "properties": {"name": "urn:ogc:def:crs:OGC:1.3:CRS84"}}, "name": "stalls", "type": "FeatureCollection", "features": [{"type": "Feature", "geometry": {"type": "Point", "coordinates": [2.174867, 41.3789958]}, "properties": {"name": "El Raval", "type": "bar"}}, {"type": "Feature", "geometry": {"type": "Point", "coordinates": [2.1735544, 41.3774595]}, "properties": {"name": "El Raval", "type": "bar"}}, {"type": "Feature", "geometry": {"type": "Point", "coordinates": [2.1722413, 41.3755899]}, "properties": {"name": "El Raval", "type": "bar"}}, {"type": "Feature", "geometry": {"type": "Point", "coordinates": [2.1708412, 41.3756878]}, "properties": {"name": "El Raval", "type": "bar"}}, {"type": "Feature", "geometry": {"type": "Point", "coordinates": [2.1724896, 41.3787719]}, "properties": {"name": "El Raval", "type": "bar"}}, {"type": "Feature", "geometry": {"type": "Point", "coordinates": [2.1731479, 41.3781187]}, "properties": {"name": "El Raval", "type": "bar"}}, {"type": "Feature", "geometry": {"type": "Point", "coordinates": [2.1729736, 41.379207]}, "properties": {"name": "El Raval", "type": "bar"}}, {"type": "Feature", "geometry": {"type": "Point", "coordinates": [2.1718041, 41.3778943]}, "properties": {"name": "El Raval", "type": "bar"}}, {"type": "Feature", "geometry": {"type": "Point", "coordinates": [2.1727671, 41.3777211]}, "properties": {"name": "El Raval", "type": "bar"}}, {"type": "Feature", "geometry": {"type": "Point", "coordinates": [2.1707826, 41.3777666]}, "properties": {"name": "El Raval", "type": "bar"}}, {"type": "Feature", "geometry": {"type": "Point", "coordinates": [2.1712432, 41.3782418]}, "properties": {"name": "El Raval", "type": "bar"}}, {"type": "Feature", "geometry": {"type": "Point", "coordinates": [2.1749702, 41.3758579]}, "properties": {"name": "El Raval", "type": "bar"}}, {"type": "Feature", "geometry": {"type": "Point", "coordinates": [2.1751425, 41.3765157]}, "properties": {"name": "El Raval", "type": "bar"}}, {"type": "Feature", "geometry": {"type": "Point", "coordinates": [2.1749382, 41.3772748]}, "properties": {"name": "El Raval", "type": "bar"}}, {"type": "Feature", "geometry": {"type": "Point", "coordinates": [2.1750649, 41.377316]}, "properties": {"name": "El Raval", "type": "bar"}}, {"type": "Feature", "geometry": {"type": "Point", "coordinates": [2.1750758, 41.3780728]}, "properties": {"name": "El Raval", "type": "bar"}}, {"type": "Feature", "geometry": {"type": "Point", "coordinates": [2.1755775, 41.3775132]}, "properties": {"name": "El Raval", "type": "bar"}}, {"type": "Feature", "geometry": {"type": "Point", "coordinates": [2.1755733, 41.3781355]}, "properties": {"name": "El Raval", "type": "bar"}}, {"type": "Feature", "geometry": {"type": "Point", "coordinates": [2.173991, 41.3756955]}, "properties": {"name": "El Raval", "type": "bar"}}, {"type": "Feature", "geometry": {"type": "Point", "coordinates": [2.170194, 41.3773955]}, "properties": {"name": "El Raval", "type": "bar"}}, {"type": "Feature", "geometry": {"type": "Point", "coordinates": [2.1703543, 41.3755883]}, "properties": {"name": "El Raval", "type": "bar"}}, {"type": "Feature", "geometry": {"type": "Point", "coordinates": [2.1725439, 41.3802566]}, "properties": {"name": "El Raval", "type": "bar"}}, {"type": "Feature", "geometry": {"type": "Point", "coordinates": [2.1708179, 41.3796952]}, "properties": {"name": "El Raval", "type": "bar"}}, {"type": "Feature", "geometry": {"type": "Point", "coordinates": [2.1696433, 41.3790957]}, "properties": {"name": "El Raval", "type": "bar"}}, {"type": "Feature", "geometry": {"type": "Point", "coordinates": [2.1707303, 41.3779709]}, "properties": {"name": "El Raval", "type": "bar"}}, {"type": "Feature", "geometry": {"type": "Point", "coordinates": [2.170849, 41.3818444]}, "properties": {"name": "El Raval", "type": "bar"}}, {"type": "Feature", "geometry": {"type": "Point", "coordinates": [2.170653, 41.3829971]}, "properties": {"name": "El Raval", "type": "bar"}}, {"type": "Feature", "geometry": {"type": "Point", "coordinates": [2.1706642, 41.3830229]}, "properties": {"name": "El Raval", "type": "bar"}}, {"type": "Feature", "geometry": {"type": "Point", "coordinates": [2.1696272, 41.3843987]}, "properties": {"name": "El Raval", "type": "bar"}}, {"type": "Feature", "geometry": {"type": "Point", "coordinates": [2.1697428, 41.3842445]}, "properties": {"name": "El Raval", "type": "bar"}}, {"type": "Feature", "geometry": {"type": "Point", "coordinates": [2.1695206, 41.3845759]}, "properties": {"name": "El Raval", "type": "bar"}}, {"type": "Feature", "geometry": {"type": "Point", "coordinates": [2.1702706, 41.3846643]}, "properties": {"name": "El Raval", "type": "bar"}}, {"type": "Feature", "geometry": {"type": "Point", "coordinates": [2.1747648, 41.3859393]}, "properties": {"name": "El Barri G\u00f2tic", "type": "bar"}}, {"type": "Feature", "geometry": {"type": "Point", "coordinates": [2.1748362, 41.3857962]}, "properties": {"name": "El Barri G\u00f2tic", "type": "bar"}}, {"type": "Feature", "geometry": {"type": "Point", "coordinates": [2.1736392, 41.3857384]}, "properties": {"name": "El Barri G\u00f2tic", "type": "bar"}}, {"type": "Feature", "geometry": {"type": "Point", "coordinates": [2.1753025, 41.3851592]}, "properties": {"name": "El Barri G\u00f2tic", "type": "bar"}}, {"type": "Feature", "geometry": {"type": "Point", "coordinates": [2.1751627, 41.3855156]}, "properties": {"name": "El Barri G\u00f2tic", "type": "bar"}}, {"type": "Feature", "geometry": {"type": "Point", "coordinates": [2.1775174, 41.3832429]}, "properties": {"name": "El Barri G\u00f2tic", "type": "bar"}}, {"type": "Feature", "geometry": {"type": "Point", "coordinates": [2.1759968, 41.3827431]}, "properties": {"name": "El Barri G\u00f2tic", "type": "bar"}}, {"type": "Feature", "geometry": {"type": "Point", "coordinates": [2.1776063, 41.3834934]}, "properties": {"name": "El Barri G\u00f2tic", "type": "bar"}}, {"type": "Feature", "geometry": {"type": "Point", "coordinates": [2.1758384, 41.3821981]}, "properties": {"name": "El Barri G\u00f2tic", "type": "bar"}}, {"type": "Feature", "geometry": {"type": "Point", "coordinates": [2.1772919, 41.3846098]}, "properties": {"name": "El Barri G\u00f2tic", "type": "bar"}}, {"type": "Feature", "geometry": {"type": "Point", "coordinates": [2.1774566, 41.3839256]}, "properties": {"name": "El Barri G\u00f2tic", "type": "bar"}}, {"type": "Feature", "geometry": {"type": "Point", "coordinates": [2.175531, 41.3828913]}, "properties": {"name": "El Barri G\u00f2tic", "type": "bar"}}, {"type": "Feature", "geometry": {"type": "Point", "coordinates": [2.1781566, 41.3832428]}, "properties": {"name": "El Barri G\u00f2tic", "type": "bar"}}, {"type": "Feature", "geometry": {"type": "Point", "coordinates": [2.178292, 41.3830486]}, "properties": {"name": "El Barri G\u00f2tic", "type": "bar"}}, {"type": "Feature", "geometry": {"type": "Point", "coordinates": [2.1767447, 41.3814694]}, "properties": {"name": "El Barri G\u00f2tic", "type": "bar"}}, {"type": "Feature", "geometry": {"type": "Point", "coordinates": [2.1767686, 41.3819109]}, "properties": {"name": "El Barri G\u00f2tic", "type": "bar"}}, {"type": "Feature", "geometry": {"type": "Point", "coordinates": [2.1743591, 41.3824601]}, "properties": {"name": "El Barri G\u00f2tic", "type": "bar"}}, {"type": "Feature", "geometry": {"type": "Point", "coordinates": [2.1740498, 41.3828611]}, "properties": {"name": "El Barri G\u00f2tic", "type": "bar"}}, {"type": "Feature", "geometry": {"type": "Point", "coordinates": [2.1742004, 41.381186]}, "properties": {"name": "El Barri G\u00f2tic", "type": "bar"}}, {"type": "Feature", "geometry": {"type": "Point", "coordinates": [2.1730348, 41.3823214]}, "properties": {"name": "El Barri G\u00f2tic", "type": "bar"}}, {"type": "Feature", "geometry": {"type": "Point", "coordinates": [2.1744854, 41.381599]}, "properties": {"name": "El Barri G\u00f2tic", "type": "bar"}}, {"type": "Feature", "geometry": {"type": "Point", "coordinates": [2.1746721, 41.3801259]}, "properties": {"name": "El Barri G\u00f2tic", "type": "bar"}}, {"type": "Feature", "geometry": {"type": "Point", "coordinates": [2.1751538, 41.3797385]}, "properties": {"name": "El Barri G\u00f2tic", "type": "bar"}}, {"type": "Feature", "geometry": {"type": "Point", "coordinates": [2.1768532, 41.3801499]}, "properties": {"name": "El Barri G\u00f2tic", "type": "bar"}}, {"type": "Feature", "geometry": {"type": "Point", "coordinates": [2.1757821, 41.379361]}, "properties": {"name": "El Barri G\u00f2tic", "type": "bar"}}, {"type": "Feature", "geometry": {"type": "Point", "coordinates": [2.177069, 41.3806763]}, "properties": {"name": "El Barri G\u00f2tic", "type": "bar"}}, {"type": "Feature", "geometry": {"type": "Point", "coordinates": [2.1770355, 41.3805356]}, "properties": {"name": "El Barri G\u00f2tic", "type": "bar"}}, {"type": "Feature", "geometry": {"type": "Point", "coordinates": [2.1770302, 41.38047]}, "properties": {"name": "El Barri G\u00f2tic", "type": "bar"}}, {"type": "Feature", "geometry": {"type": "Point", "coordinates": [2.1760057, 41.3806023]}, "properties": {"name": "El Barri G\u00f2tic", "type": "bar"}}, {"type": "Feature", "geometry": {"type": "Point", "coordinates": [2.1754554, 41.3809266]}, "properties": {"name": "El Barri G\u00f2tic", "type": "bar"}}, {"type": "Feature", "geometry": {"type": "Point", "coordinates": [2.1752424, 41.3797222]}, "properties": {"name": "El Barri G\u00f2tic", "type": "bar"}}, {"type": "Feature", "geometry": {"type": "Point", "coordinates": [2.1783933, 41.3779098]}, "properties": {"name": "El Barri G\u00f2tic", "type": "bar"}}, {"type": "Feature", "geometry": {"type": "Point", "coordinates": [2.17677, 41.3798943]}, "properties": {"name": "El Barri G\u00f2tic", "type": "bar"}}, {"type": "Feature", "geometry": {"type": "Point", "coordinates": [2.1777037, 41.3779157]}, "properties": {"name": "El Barri G\u00f2tic", "type": "bar"}}, {"type": "Feature", "geometry": {"type": "Point", "coordinates": [2.1780016, 41.3796837]}, "properties": {"name": "El Barri G\u00f2tic", "type": "bar"}}, {"type": "Feature", "geometry": {"type": "Point", "coordinates": [2.1781997, 41.3805215]}, "properties": {"name": "El Barri G\u00f2tic", "type": "bar"}}, {"type": "Feature", "geometry": {"type": "Point", "coordinates": [2.1778655, 41.385131]}, "properties": {"name": "Sant Pere, Santa Caterina i la Ribera", "type": "bar"}}, {"type": "Feature", "geometry": {"type": "Point", "coordinates": [2.1735576, 41.3780139]}, "properties": {"name": "El Raval", "type": "cafe"}}, {"type": "Feature", "geometry": {"type": "Point", "coordinates": [2.1721158, 41.3767614]}, "properties": {"name": "El Raval", "type": "cafe"}}, {"type": "Feature", "geometry": {"type": "Point", "coordinates": [2.1726004, 41.3775591]}, "properties": {"name": "El Raval", "type": "cafe"}}, {"type": "Feature", "geometry": {"type": "Point", "coordinates": [2.1731427, 41.3809033]}, "properties": {"name": "El Raval", "type": "cafe"}}, {"type": "Feature", "geometry": {"type": "Point", "coordinates": [2.1714093, 41.3788852]}, "properties": {"name": "El Raval", "type": "cafe"}}, {"type": "Feature", "geometry": {"type": "Point", "coordinates": [2.170768, 41.3803452]}, "properties": {"name": "El Raval", "type": "cafe"}}, {"type": "Feature", "geometry": {"type": "Point", "coordinates": [2.1718613, 41.3789307]}, "properties": {"name": "El Raval", "type": "cafe"}}, {"type": "Feature", "geometry": {"type": "Point", "coordinates": [2.1709697, 41.3780898]}, "properties": {"name": "El Raval", "type": "cafe"}}, {"type": "Feature", "geometry": {"type": "Point", "coordinates": [2.1704778, 41.3781559]}, "properties": {"name": "El Raval", "type": "cafe"}}, {"type": "Feature", "geometry": {"type": "Point", "coordinates": [2.170759, 41.3787207]}, "properties": {"name": "El Raval", "type": "cafe"}}, {"type": "Feature", "geometry": {"type": "Point", "coordinates": [2.1702991, 41.3808891]}, "properties": {"name": "El Raval", "type": "cafe"}}, {"type": "Feature", "geometry": {"type": "Point", "coordinates": [2.171352, 41.3817361]}, "properties": {"name": "El Raval", "type": "cafe"}}, {"type": "Feature", "geometry": {"type": "Point", "coordinates": [2.1716972, 41.3826567]}, "properties": {"name": "El Raval", "type": "cafe"}}, {"type": "Feature", "geometry": {"type": "Point", "coordinates": [2.1695665, 41.3837802]}, "properties": {"name": "El Raval", "type": "cafe"}}, {"type": "Feature", "geometry": {"type": "Point", "coordinates": [2.1710542, 41.383021]}, "properties": {"name": "El Raval", "type": "cafe"}}, {"type": "Feature", "geometry": {"type": "Point", "coordinates": [2.1696233, 41.3838044]}, "properties": {"name": "El Raval", "type": "cafe"}}, {"type": "Feature", "geometry": {"type": "Point", "coordinates": [2.1697221, 41.3820297]}, "properties": {"name": "El Raval", "type": "cafe"}}, {"type": "Feature", "geometry": {"type": "Point", "coordinates": [2.1695562, 41.3837378]}, "properties": {"name": "El Raval", "type": "cafe"}}, {"type": "Feature", "geometry": {"type": "Point", "coordinates": [2.1699098, 41.3839799]}, "properties": {"name": "El Raval", "type": "cafe"}}, {"type": "Feature", "geometry": {"type": "Point", "coordinates": [2.1712564, 41.383406]}, "properties": {"name": "El Raval", "type": "cafe"}}, {"type": "Feature", "geometry": {"type": "Point", "coordinates": [2.169911, 41.3842479]}, "properties": {"name": "El Raval", "type": "cafe"}}, {"type": "Feature", "geometry": {"type": "Point", "coordinates": [2.1702138, 41.3843696]}, "properties": {"name": "El Raval", "type": "cafe"}}, {"type": "Feature", "geometry": {"type": "Point", "coordinates": [2.1699232, 41.3846695]}, "properties": {"name": "El Raval", "type": "cafe"}}, {"type": "Feature", "geometry": {"type": "Point", "coordinates": [2.1713506, 41.385128]}, "properties": {"name": "El Barri G\u00f2tic", "type": "cafe"}}, {"type": "Feature", "geometry": {"type": "Point", "coordinates": [2.1740634, 41.3843839]}, "properties": {"name": "El Barri G\u00f2tic", "type": "cafe"}}, {"type": "Feature", "geometry": {"type": "Point", "coordinates": [2.1724584, 41.385786]}, "properties": {"name": "El Barri G\u00f2tic", "type": "cafe"}}, {"type": "Feature", "geometry": {"type": "Point", "coordinates": [2.17514, 41.384715]}, "properties": {"name": "El Barri G\u00f2tic", "type": "cafe"}}, {"type": "Feature", "geometry": {"type": "Point", "coordinates": [2.1753232, 41.3820651]}, "properties": {"name": "El Barri G\u00f2tic", "type": "cafe"}}, {"type": "Feature", "geometry": {"type": "Point", "coordinates": [2.1778183, 41.3836573]}, "properties": {"name": "El Barri G\u00f2tic", "type": "cafe"}}, {"type": "Feature", "geometry": {"type": "Point", "coordinates": [2.1766198, 41.3825115]}, "properties": {"name": "El Barri G\u00f2tic", "type": "cafe"}}, {"type": "Feature", "geometry": {"type": "Point", "coordinates": [2.1752356, 41.382645]}, "properties": {"name": "El Barri G\u00f2tic", "type": "cafe"}}, {"type": "Feature", "geometry": {"type": "Point", "coordinates": [2.1773128, 41.3838079]}, "properties": {"name": "El Barri G\u00f2tic", "type": "cafe"}}, {"type": "Feature", "geometry": {"type": "Point", "coordinates": [2.1770622, 41.384443]}, "properties": {"name": "El Barri G\u00f2tic", "type": "cafe"}}, {"type": "Feature", "geometry": {"type": "Point", "coordinates": [2.1777123, 41.383572]}, "properties": {"name": "El Barri G\u00f2tic", "type": "cafe"}}, {"type": "Feature", "geometry": {"type": "Point", "coordinates": [2.1773673, 41.3831411]}, "properties": {"name": "El Barri G\u00f2tic", "type": "cafe"}}, {"type": "Feature", "geometry": {"type": "Point", "coordinates": [2.1767008, 41.3847931]}, "properties": {"name": "El Barri G\u00f2tic", "type": "cafe"}}, {"type": "Feature", "geometry": {"type": "Point", "coordinates": [2.175566, 41.3828733]}, "properties": {"name": "El Barri G\u00f2tic", "type": "cafe"}}, {"type": "Feature", "geometry": {"type": "Point", "coordinates": [2.1768651, 41.3846872]}, "properties": {"name": "El Barri G\u00f2tic", "type": "cafe"}}, {"type": "Feature", "geometry": {"type": "Point", "coordinates": [2.1777699, 41.3824551]}, "properties": {"name": "El Barri G\u00f2tic", "type": "cafe"}}, {"type": "Feature", "geometry": {"type": "Point", "coordinates": [2.1783628, 41.3830971]}, "properties": {"name": "El Barri G\u00f2tic", "type": "cafe"}}, {"type": "Feature", "geometry": {"type": "Point", "coordinates": [2.1772158, 41.3810051]}, "properties": {"name": "El Barri G\u00f2tic", "type": "cafe"}}, {"type": "Feature", "geometry": {"type": "Point", "coordinates": [2.1784211, 41.3813792]}, "properties": {"name": "El Barri G\u00f2tic", "type": "cafe"}}, {"type": "Feature", "geometry": {"type": "Point", "coordinates": [2.1737529, 41.3825742]}, "properties": {"name": "El Barri G\u00f2tic", "type": "cafe"}}, {"type": "Feature", "geometry": {"type": "Point", "coordinates": [2.1734106, 41.3824721]}, "properties": {"name": "El Barri G\u00f2tic", "type": "cafe"}}, {"type": "Feature", "geometry": {"type": "Point", "coordinates": [2.1744369, 41.3830524]}, "properties": {"name": "El Barri G\u00f2tic", "type": "cafe"}}, {"type": "Feature", "geometry": {"type": "Point", "coordinates": [2.1735146, 41.3821336]}, "properties": {"name": "El Barri G\u00f2tic", "type": "cafe"}}, {"type": "Feature", "geometry": {"type": "Point", "coordinates": [2.1740318, 41.3824386]}, "properties": {"name": "El Barri G\u00f2tic", "type": "cafe"}}, {"type": "Feature", "geometry": {"type": "Point", "coordinates": [2.1727589, 41.3829094]}, "properties": {"name": "El Barri G\u00f2tic", "type": "cafe"}}, {"type": "Feature", "geometry": {"type": "Point", "coordinates": [2.1741661, 41.3826857]}, "properties": {"name": "El Barri G\u00f2tic", "type": "cafe"}}, {"type": "Feature", "geometry": {"type": "Point", "coordinates": [2.1738867, 41.3824738]}, "properties": {"name": "El Barri G\u00f2tic", "type": "cafe"}}, {"type": "Feature", "geometry": {"type": "Point", "coordinates": [2.1744317, 41.3822008]}, "properties": {"name": "El Barri G\u00f2tic", "type": "cafe"}}, {"type": "Feature", "geometry": {"type": "Point", "coordinates": [2.1754606, 41.3814249]}, "properties": {"name": "El Barri G\u00f2tic", "type": "cafe"}}, {"type": "Feature", "geometry": {"type": "Point", "coordinates": [2.1737766, 41.3809698]}, "properties": {"name": "El Barri G\u00f2tic", "type": "cafe"}}, {"type": "Feature", "geometry": {"type": "Point", "coordinates": [2.1743777, 41.3802375]}, "properties": {"name": "El Barri G\u00f2tic", "type": "cafe"}}, {"type": "Feature", "geometry": {"type": "Point", "coordinates": [2.1762245, 41.3798361]}, "properties": {"name": "El Barri G\u00f2tic", "type": "cafe"}}, {"type": "Feature", "geometry": {"type": "Point", "coordinates": [2.174911, 41.3796874]}, "properties": {"name": "El Barri G\u00f2tic", "type": "cafe"}}, {"type": "Feature", "geometry": {"type": "Point", "coordinates": [2.1759038, 41.3815774]}, "properties": {"name": "El Barri G\u00f2tic", "type": "cafe"}}, {"type": "Feature", "geometry": {"type": "Point", "coordinates": [2.1755608, 41.379674]}, "properties": {"name": "El Barri G\u00f2tic", "type": "cafe"}}, {"type": "Feature", "geometry": {"type": "Point", "coordinates": [2.1759702, 41.3792707]}, "properties": {"name": "El Barri G\u00f2tic", "type": "cafe"}}, {"type": "Feature", "geometry": {"type": "Point", "coordinates": [2.177077, 41.3803225]}, "properties": {"name": "El Barri G\u00f2tic", "type": "cafe"}}, {"type": "Feature", "geometry": {"type": "Point", "coordinates": [2.177738, 41.3787095]}, "properties": {"name": "El Barri G\u00f2tic", "type": "cafe"}}, {"type": "Feature", "geometry": {"type": "Point", "coordinates": [2.1774883, 41.3768216]}, "properties": {"name": "El Barri G\u00f2tic", "type": "cafe"}}, {"type": "Feature", "geometry": {"type": "Point", "coordinates": [2.1773093, 41.3771412]}, "properties": {"name": "El Barri G\u00f2tic", "type": "cafe"}}, {"type": "Feature", "geometry": {"type": "Point", "coordinates": [2.1774842, 41.3803265]}, "properties": {"name": "El Barri G\u00f2tic", "type": "cafe"}}, {"type": "Feature", "geometry": {"type": "Point", "coordinates": [2.1773136, 41.3802824]}, "properties": {"name": "El Barri G\u00f2tic", "type": "cafe"}}, {"type": "Feature", "geometry": {"type": "Point", "coordinates": [2.1778401, 41.3804667]}, "properties": {"name": "El Barri G\u00f2tic", "type": "cafe"}}, {"type": "Feature", "geometry": {"type": "Point", "coordinates": [2.1771925, 41.3852913]}, "properties": {"name": "Sant Pere, Santa Caterina i la Ribera", "type": "cafe"}}, {"type": "Feature", "geometry": {"type": "Point", "coordinates": [2.1783612, 41.3864879]}, "properties": {"name": "Sant Pere, Santa Caterina i la Ribera", "type": "cafe"}}, {"type": "Feature", "geometry": {"type": "Point", "coordinates": [2.1782952, 41.3844536]}, "properties": {"name": "Sant Pere, Santa Caterina i la Ribera", "type": "cafe"}}, {"type": "Feature", "geometry": {"type": "Point", "coordinates": [2.1783217, 41.3857566]}, "properties": {"name": "Sant Pere, Santa Caterina i la Ribera", "type": "cafe"}}, {"type": "Feature", "geometry": {"type": "Point", "coordinates": [2.1760826, 41.3863252]}, "properties": {"name": "Sant Pere, Santa Caterina i la Ribera", "type": "cafe"}}, {"type": "Feature", "geometry": {"type": "Point", "coordinates": [2.177176, 41.3860344]}, "properties": {"name": "Sant Pere, Santa Caterina i la Ribera", "type": "cafe"}}, {"type": "Feature", "geometry": {"type": "Point", "coordinates": [2.1759654, 41.3862324]}, "properties": {"name": "Sant Pere, Santa Caterina i la Ribera", "type": "cafe"}}, {"type": "Feature", "geometry": {"type": "Point", "coordinates": [2.1756977, 41.3863947]}, "properties": {"name": "Sant Pere, Santa Caterina i la Ribera", "type": "cafe"}}, {"type": "Feature", "geometry": {"type": "Point", "coordinates": [2.1706594, 41.3755254]}, "properties": {"name": "El Raval", "type": "fast_food"}}, {"type": "Feature", "geometry": {"type": "Point", "coordinates": [2.1722373, 41.3791772]}, "properties": {"name": "El Raval", "type": "fast_food"}}, {"type": "Feature", "geometry": {"type": "Point", "coordinates": [2.1732584, 41.379321]}, "properties": {"name": "El Raval", "type": "fast_food"}}, {"type": "Feature", "geometry": {"type": "Point", "coordinates": [2.1745096, 41.3794478]}, "properties": {"name": "El Raval", "type": "fast_food"}}, {"type": "Feature", "geometry": {"type": "Point", "coordinates": [2.1728957, 41.3778452]}, "properties": {"name": "El Raval", "type": "fast_food"}}, {"type": "Feature", "geometry": {"type": "Point", "coordinates": [2.1721112, 41.37904]}, "properties": {"name": "El Raval", "type": "fast_food"}}, {"type": "Feature", "geometry": {"type": "Point", "coordinates": [2.1695415, 41.3780986]}, "properties": {"name": "El Raval", "type": "fast_food"}}, {"type": "Feature", "geometry": {"type": "Point", "coordinates": [2.1698667, 41.3778236]}, "properties": {"name": "El Raval", "type": "fast_food"}}, {"type": "Feature", "geometry": {"type": "Point", "coordinates": [2.1699576, 41.377741]}, "properties": {"name": "El Raval", "type": "fast_food"}}, {"type": "Feature", "geometry": {"type": "Point", "coordinates": [2.1695121, 41.3781212]}, "properties": {"name": "El Raval", "type": "fast_food"}}, {"type": "Feature", "geometry": {"type": "Point", "coordinates": [2.1701174, 41.3776196]}, "properties": {"name": "El Raval", "type": "fast_food"}}, {"type": "Feature", "geometry": {"type": "Point", "coordinates": [2.1696522, 41.377995]}, "properties": {"name": "El Raval", "type": "fast_food"}}, {"type": "Feature", "geometry": {"type": "Point", "coordinates": [2.1697313, 41.3779188]}, "properties": {"name": "El Raval", "type": "fast_food"}}, {"type": "Feature", "geometry": {"type": "Point", "coordinates": [2.1730509, 41.380705]}, "properties": {"name": "El Raval", "type": "fast_food"}}, {"type": "Feature", "geometry": {"type": "Point", "coordinates": [2.1703768, 41.3782337]}, "properties": {"name": "El Raval", "type": "fast_food"}}, {"type": "Feature", "geometry": {"type": "Point", "coordinates": [2.170575, 41.3780774]}, "properties": {"name": "El Raval", "type": "fast_food"}}, {"type": "Feature", "geometry": {"type": "Point", "coordinates": [2.1725305, 41.3816636]}, "properties": {"name": "El Raval", "type": "fast_food"}}, {"type": "Feature", "geometry": {"type": "Point", "coordinates": [2.1719827, 41.3822966]}, "properties": {"name": "El Raval", "type": "fast_food"}}, {"type": "Feature", "geometry": {"type": "Point", "coordinates": [2.172403, 41.3818518]}, "properties": {"name": "El Raval", "type": "fast_food"}}, {"type": "Feature", "geometry": {"type": "Point", "coordinates": [2.1712262, 41.3807483]}, "properties": {"name": "El Raval", "type": "fast_food"}}, {"type": "Feature", "geometry": {"type": "Point", "coordinates": [2.1710896, 41.3817907]}, "properties": {"name": "El Raval", "type": "fast_food"}}, {"type": "Feature", "geometry": {"type": "Point", "coordinates": [2.1723439, 41.3819524]}, "properties": {"name": "El Raval", "type": "fast_food"}}, {"type": "Feature", "geometry": {"type": "Point", "coordinates": [2.1706668, 41.3842121]}, "properties": {"name": "El Raval", "type": "fast_food"}}, {"type": "Feature", "geometry": {"type": "Point", "coordinates": [2.1696625, 41.3819909]}, "properties": {"name": "El Raval", "type": "fast_food"}}, {"type": "Feature", "geometry": {"type": "Point", "coordinates": [2.1703802, 41.3845397]}, "properties": {"name": "El Raval", "type": "fast_food"}}, {"type": "Feature", "geometry": {"type": "Point", "coordinates": [2.1703539, 41.3845823]}, "properties": {"name": "El Raval", "type": "fast_food"}}, {"type": "Feature", "geometry": {"type": "Point", "coordinates": [2.1698477, 41.3852671]}, "properties": {"name": "El Raval", "type": "fast_food"}}, {"type": "Feature", "geometry": {"type": "Point", "coordinates": [2.1696362, 41.385359]}, "properties": {"name": "El Raval", "type": "fast_food"}}, {"type": "Feature", "geometry": {"type": "Point", "coordinates": [2.174313, 41.3848196]}, "properties": {"name": "El Barri G\u00f2tic", "type": "fast_food"}}, {"type": "Feature", "geometry": {"type": "Point", "coordinates": [2.176454, 41.3825181]}, "properties": {"name": "El Barri G\u00f2tic", "type": "fast_food"}}, {"type": "Feature", "geometry": {"type": "Point", "coordinates": [2.1776918, 41.3832206]}, "properties": {"name": "El Barri G\u00f2tic", "type": "fast_food"}}, {"type": "Feature", "geometry": {"type": "Point", "coordinates": [2.1764461, 41.3824002]}, "properties": {"name": "El Barri G\u00f2tic", "type": "fast_food"}}, {"type": "Feature", "geometry": {"type": "Point", "coordinates": [2.1773087, 41.3829281]}, "properties": {"name": "El Barri G\u00f2tic", "type": "fast_food"}}, {"type": "Feature", "geometry": {"type": "Point", "coordinates": [2.1771014, 41.383052]}, "properties": {"name": "El Barri G\u00f2tic", "type": "fast_food"}}, {"type": "Feature", "geometry": {"type": "Point", "coordinates": [2.1759276, 41.3818247]}, "properties": {"name": "El Barri G\u00f2tic", "type": "fast_food"}}, {"type": "Feature", "geometry": {"type": "Point", "coordinates": [2.1770686, 41.3850208]}, "properties": {"name": "El Barri G\u00f2tic", "type": "fast_food"}}, {"type": "Feature", "geometry": {"type": "Point", "coordinates": [2.1759565, 41.3818471]}, "properties": {"name": "El Barri G\u00f2tic", "type": "fast_food"}}, {"type": "Feature", "geometry": {"type": "Point", "coordinates": [2.1775954, 41.38296]}, "properties": {"name": "El Barri G\u00f2tic", "type": "fast_food"}}, {"type": "Feature", "geometry": {"type": "Point", "coordinates": [2.1769435, 41.3822788]}, "properties": {"name": "El Barri G\u00f2tic", "type": "fast_food"}}, {"type": "Feature", "geometry": {"type": "Point", "coordinates": [2.1741843, 41.3804543]}, "properties": {"name": "El Barri G\u00f2tic", "type": "fast_food"}}, {"type": "Feature", "geometry": {"type": "Point", "coordinates": [2.1751888, 41.3812154]}, "properties": {"name": "El Barri G\u00f2tic", "type": "fast_food"}}, {"type": "Feature", "geometry": {"type": "Point", "coordinates": [2.1747065, 41.3808373]}, "properties": {"name": "El Barri G\u00f2tic", "type": "fast_food"}}, {"type": "Feature", "geometry": {"type": "Point", "coordinates": [2.1726322, 41.382146]}, "properties": {"name": "El Barri G\u00f2tic", "type": "fast_food"}}, {"type": "Feature", "geometry": {"type": "Point", "coordinates": [2.1763278, 41.3796548]}, "properties": {"name": "El Barri G\u00f2tic", "type": "fast_food"}}, {"type": "Feature", "geometry": {"type": "Point", "coordinates": [2.1762739, 41.3802221]}, "properties": {"name": "El Barri G\u00f2tic", "type": "fast_food"}}, {"type": "Feature", "geometry": {"type": "Point", "coordinates": [2.1751068, 41.3809866]}, "properties": {"name": "El Barri G\u00f2tic", "type": "fast_food"}}, {"type": "Feature", "geometry": {"type": "Point", "coordinates": [2.1746909, 41.380636]}, "properties": {"name": "El Barri G\u00f2tic", "type": "fast_food"}}, {"type": "Feature", "geometry": {"type": "Point", "coordinates": [2.1757171, 41.3814704]}, "properties": {"name": "El Barri G\u00f2tic", "type": "fast_food"}}, {"type": "Feature", "geometry": {"type": "Point", "coordinates": [2.1743286, 41.3803081]}, "properties": {"name": "El Barri G\u00f2tic", "type": "fast_food"}}, {"type": "Feature", "geometry": {"type": "Point", "coordinates": [2.1764264, 41.3795697]}, "properties": {"name": "El Barri G\u00f2tic", "type": "fast_food"}}, {"type": "Feature", "geometry": {"type": "Point", "coordinates": [2.1761732, 41.3782716]}, "properties": {"name": "El Barri G\u00f2tic", "type": "fast_food"}}, {"type": "Feature", "geometry": {"type": "Point", "coordinates": [2.1765663, 41.3857499]}, "properties": {"name": "Sant Pere, Santa Caterina i la Ribera", "type": "fast_food"}}, {"type": "Feature", "geometry": {"type": "Point", "coordinates": [2.1746298, 41.3829111]}, "properties": {"name": "nan", "type": "restaurant"}}, {"type": "Feature", "geometry": {"type": "Point", "coordinates": [2.1763298, 41.3813599]}, "properties": {"name": "nan", "type": "restaurant"}}, {"type": "Feature", "geometry": {"type": "Point", "coordinates": [2.1754099, 41.3787828]}, "properties": {"name": "nan", "type": "restaurant"}}, {"type": "Feature", "geometry": {"type": "Point", "coordinates": [2.1748873, 41.3790539]}, "properties": {"name": "El Raval", "type": "restaurant"}}, {"type": "Feature", "geometry": {"type": "Point", "coordinates": [2.1734114, 41.3774762]}, "properties": {"name": "El Raval", "type": "restaurant"}}, {"type": "Feature", "geometry": {"type": "Point", "coordinates": [2.1734613, 41.3774567]}, "properties": {"name": "El Raval", "type": "restaurant"}}, {"type": "Feature", "geometry": {"type": "Point", "coordinates": [2.1743579, 41.3790974]}, "properties": {"name": "El Raval", "type": "restaurant"}}, {"type": "Feature", "geometry": {"type": "Point", "coordinates": [2.1747253, 41.3791435]}, "properties": {"name": "El Raval", "type": "restaurant"}}, {"type": "Feature", "geometry": {"type": "Point", "coordinates": [2.173039, 41.3778272]}, "properties": {"name": "El Raval", "type": "restaurant"}}, {"type": "Feature", "geometry": {"type": "Point", "coordinates": [2.1710366, 41.3759077]}, "properties": {"name": "El Raval", "type": "restaurant"}}, {"type": "Feature", "geometry": {"type": "Point", "coordinates": [2.1721944, 41.3767505]}, "properties": {"name": "El Raval", "type": "restaurant"}}, {"type": "Feature", "geometry": {"type": "Point", "coordinates": [2.1708949, 41.3757858]}, "properties": {"name": "El Raval", "type": "restaurant"}}, {"type": "Feature", "geometry": {"type": "Point", "coordinates": [2.1707697, 41.3755683]}, "properties": {"name": "El Raval", "type": "restaurant"}}, {"type": "Feature", "geometry": {"type": "Point", "coordinates": [2.173138, 41.3791405]}, "properties": {"name": "El Raval", "type": "restaurant"}}, {"type": "Feature", "geometry": {"type": "Point", "coordinates": [2.1713995, 41.3776528]}, "properties": {"name": "El Raval", "type": "restaurant"}}, {"type": "Feature", "geometry": {"type": "Point", "coordinates": [2.1724933, 41.3785779]}, "properties": {"name": "El Raval", "type": "restaurant"}}, {"type": "Feature", "geometry": {"type": "Point", "coordinates": [2.1738741, 41.380183]}, "properties": {"name": "El Raval", "type": "restaurant"}}, {"type": "Feature", "geometry": {"type": "Point", "coordinates": [2.1721976, 41.3791045]}, "properties": {"name": "El Raval", "type": "restaurant"}}, {"type": "Feature", "geometry": {"type": "Point", "coordinates": [2.1714405, 41.3776991]}, "properties": {"name": "El Raval", "type": "restaurant"}}, {"type": "Feature", "geometry": {"type": "Point", "coordinates": [2.1715247, 41.3785215]}, "properties": {"name": "El Raval", "type": "restaurant"}}, {"type": "Feature", "geometry": {"type": "Point", "coordinates": [2.1735229, 41.378448]}, "properties": {"name": "El Raval", "type": "restaurant"}}, {"type": "Feature", "geometry": {"type": "Point", "coordinates": [2.1728032, 41.3799009]}, "properties": {"name": "El Raval", "type": "restaurant"}}, {"type": "Feature", "geometry": {"type": "Point", "coordinates": [2.1726767, 41.3776493]}, "properties": {"name": "El Raval", "type": "restaurant"}}, {"type": "Feature", "geometry": {"type": "Point", "coordinates": [2.1743205, 41.3796645]}, "properties": {"name": "El Raval", "type": "restaurant"}}, {"type": "Feature", "geometry": {"type": "Point", "coordinates": [2.1726365, 41.3787183]}, "properties": {"name": "El Raval", "type": "restaurant"}}, {"type": "Feature", "geometry": {"type": "Point", "coordinates": [2.1761434, 41.375764]}, "properties": {"name": "El Raval", "type": "restaurant"}}, {"type": "Feature", "geometry": {"type": "Point", "coordinates": [2.1754339, 41.3783617]}, "properties": {"name": "El Raval", "type": "restaurant"}}, {"type": "Feature", "geometry": {"type": "Point", "coordinates": [2.1756167, 41.3778679]}, "properties": {"name": "El Raval", "type": "restaurant"}}, {"type": "Feature", "geometry": {"type": "Point", "coordinates": [2.17509, 41.3765231]}, "properties": {"name": "El Raval", "type": "restaurant"}}, {"type": "Feature", "geometry": {"type": "Point", "coordinates": [2.1743394, 41.3759367]}, "properties": {"name": "El Raval", "type": "restaurant"}}, {"type": "Feature", "geometry": {"type": "Point", "coordinates": [2.1739303, 41.3765927]}, "properties": {"name": "El Raval", "type": "restaurant"}}, {"type": "Feature", "geometry": {"type": "Point", "coordinates": [2.1747713, 41.3758354]}, "properties": {"name": "El Raval", "type": "restaurant"}}, {"type": "Feature", "geometry": {"type": "Point", "coordinates": [2.170318, 41.3777442]}, "properties": {"name": "El Raval", "type": "restaurant"}}, {"type": "Feature", "geometry": {"type": "Point", "coordinates": [2.170023, 41.3776904]}, "properties": {"name": "El Raval", "type": "restaurant"}}, {"type": "Feature", "geometry": {"type": "Point", "coordinates": [2.1698052, 41.3778869]}, "properties": {"name": "El Raval", "type": "restaurant"}}, {"type": "Feature", "geometry": {"type": "Point", "coordinates": [2.1697552, 41.3769505]}, "properties": {"name": "El Raval", "type": "restaurant"}}, {"type": "Feature", "geometry": {"type": "Point", "coordinates": [2.1731708, 41.3809676]}, "properties": {"name": "El Raval", "type": "restaurant"}}, {"type": "Feature", "geometry": {"type": "Point", "coordinates": [2.1729179, 41.3803566]}, "properties": {"name": "El Raval", "type": "restaurant"}}, {"type": "Feature", "geometry": {"type": "Point", "coordinates": [2.1718896, 41.3792285]}, "properties": {"name": "El Raval", "type": "restaurant"}}, {"type": "Feature", "geometry": {"type": "Point", "coordinates": [2.1724677, 41.380365]}, "properties": {"name": "El Raval", "type": "restaurant"}}, {"type": "Feature", "geometry": {"type": "Point", "coordinates": [2.1731696, 41.3809869]}, "properties": {"name": "El Raval", "type": "restaurant"}}, {"type": "Feature", "geometry": {"type": "Point", "coordinates": [2.1727068, 41.3799382]}, "properties": {"name": "El Raval", "type": "restaurant"}}, {"type": "Feature", "geometry": {"type": "Point", "coordinates": [2.1703488, 41.378233]}, "properties": {"name": "El Raval", "type": "restaurant"}}, {"type": "Feature", "geometry": {"type": "Point", "coordinates": [2.1706456, 41.3780344]}, "properties": {"name": "El Raval", "type": "restaurant"}}, {"type": "Feature", "geometry": {"type": "Point", "coordinates": [2.1695103, 41.3792715]}, "properties": {"name": "El Raval", "type": "restaurant"}}, {"type": "Feature", "geometry": {"type": "Point", "coordinates": [2.1697997, 41.3794572]}, "properties": {"name": "El Raval", "type": "restaurant"}}, {"type": "Feature", "geometry": {"type": "Point", "coordinates": [2.1704238, 41.3781887]}, "properties": {"name": "El Raval", "type": "restaurant"}}, {"type": "Feature", "geometry": {"type": "Point", "coordinates": [2.1705298, 41.3781135]}, "properties": {"name": "El Raval", "type": "restaurant"}}, {"type": "Feature", "geometry": {"type": "Point", "coordinates": [2.1708328, 41.3792938]}, "properties": {"name": "El Raval", "type": "restaurant"}}, {"type": "Feature", "geometry": {"type": "Point", "coordinates": [2.1702776, 41.3783]}, "properties": {"name": "El Raval", "type": "restaurant"}}, {"type": "Feature", "geometry": {"type": "Point", "coordinates": [2.1728937, 41.3812444]}, "properties": {"name": "El Raval", "type": "restaurant"}}, {"type": "Feature", "geometry": {"type": "Point", "coordinates": [2.1707811, 41.3824165]}, "properties": {"name": "El Raval", "type": "restaurant"}}, {"type": "Feature", "geometry": {"type": "Point", "coordinates": [2.1727031, 41.3814545]}, "properties": {"name": "El Raval", "type": "restaurant"}}, {"type": "Feature", "geometry": {"type": "Point", "coordinates": [2.171476, 41.3809882]}, "properties": {"name": "El Raval", "type": "restaurant"}}, {"type": "Feature", "geometry": {"type": "Point", "coordinates": [2.1721595, 41.3815588]}, "properties": {"name": "El Raval", "type": "restaurant"}}, {"type": "Feature", "geometry": {"type": "Point", "coordinates": [2.1721675, 41.3819517]}, "properties": {"name": "El Raval", "type": "restaurant"}}, {"type": "Feature", "geometry": {"type": "Point", "coordinates": [2.1728162, 41.3813446]}, "properties": {"name": "El Raval", "type": "restaurant"}}, {"type": "Feature", "geometry": {"type": "Point", "coordinates": [2.1718376, 41.3816873]}, "properties": {"name": "El Raval", "type": "restaurant"}}, {"type": "Feature", "geometry": {"type": "Point", "coordinates": [2.1720836, 41.3814374]}, "properties": {"name": "El Raval", "type": "restaurant"}}, {"type": "Feature", "geometry": {"type": "Point", "coordinates": [2.1698396, 41.3819444]}, "properties": {"name": "El Raval", "type": "restaurant"}}, {"type": "Feature", "geometry": {"type": "Point", "coordinates": [2.1717924, 41.3823881]}, "properties": {"name": "El Raval", "type": "restaurant"}}, {"type": "Feature", "geometry": {"type": "Point", "coordinates": [2.1715233, 41.3812088]}, "properties": {"name": "El Raval", "type": "restaurant"}}, {"type": "Feature", "geometry": {"type": "Point", "coordinates": [2.1711659, 41.3821783]}, "properties": {"name": "El Raval", "type": "restaurant"}}, {"type": "Feature", "geometry": {"type": "Point", "coordinates": [2.1717301, 41.3817433]}, "properties": {"name": "El Raval", "type": "restaurant"}}, {"type": "Feature", "geometry": {"type": "Point", "coordinates": [2.1728591, 41.3812802]}, "properties": {"name": "El Raval", "type": "restaurant"}}, {"type": "Feature", "geometry": {"type": "Point", "coordinates": [2.1713753, 41.3816402]}, "properties": {"name": "El Raval", "type": "restaurant"}}, {"type": "Feature", "geometry": {"type": "Point", "coordinates": [2.1724342, 41.381736]}, "properties": {"name": "El Raval", "type": "restaurant"}}, {"type": "Feature", "geometry": {"type": "Point", "coordinates": [2.1706819, 41.3819553]}, "properties": {"name": "El Raval", "type": "restaurant"}}, {"type": "Feature", "geometry": {"type": "Point", "coordinates": [2.1717912, 41.381948]}, "properties": {"name": "El Raval", "type": "restaurant"}}, {"type": "Feature", "geometry": {"type": "Point", "coordinates": [2.1719721, 41.3814366]}, "properties": {"name": "El Raval", "type": "restaurant"}}, {"type": "Feature", "geometry": {"type": "Point", "coordinates": [2.170504, 41.3832611]}, "properties": {"name": "El Raval", "type": "restaurant"}}, {"type": "Feature", "geometry": {"type": "Point", "coordinates": [2.170821, 41.382919]}, "properties": {"name": "El Raval", "type": "restaurant"}}, {"type": "Feature", "geometry": {"type": "Point", "coordinates": [2.1695795, 41.3819482]}, "properties": {"name": "El Raval", "type": "restaurant"}}, {"type": "Feature", "geometry": {"type": "Point", "coordinates": [2.170482, 41.3843881]}, "properties": {"name": "El Raval", "type": "restaurant"}}, {"type": "Feature", "geometry": {"type": "Point", "coordinates": [2.1710948, 41.3835738]}, "properties": {"name": "El Raval", "type": "restaurant"}}, {"type": "Feature", "geometry": {"type": "Point", "coordinates": [2.1703394, 41.384338]}, "properties": {"name": "El Raval", "type": "restaurant"}}, {"type": "Feature", "geometry": {"type": "Point", "coordinates": [2.1701667, 41.3832659]}, "properties": {"name": "El Raval", "type": "restaurant"}}, {"type": "Feature", "geometry": {"type": "Point", "coordinates": [2.1703808, 41.3831077]}, "properties": {"name": "El Raval", "type": "restaurant"}}, {"type": "Feature", "geometry": {"type": "Point", "coordinates": [2.1709656, 41.383726]}, "properties": {"name": "El Raval", "type": "restaurant"}}, {"type": "Feature", "geometry": {"type": "Point", "coordinates": [2.1703643, 41.382383]}, "properties": {"name": "El Raval", "type": "restaurant"}}, {"type": "Feature", "geometry": {"type": "Point", "coordinates": [2.1699799, 41.3829239]}, "properties": {"name": "El Raval", "type": "restaurant"}}, {"type": "Feature", "geometry": {"type": "Point", "coordinates": [2.1708246, 41.3825937]}, "properties": {"name": "El Raval", "type": "restaurant"}}, {"type": "Feature", "geometry": {"type": "Point", "coordinates": [2.170196, 41.3843798]}, "properties": {"name": "El Raval", "type": "restaurant"}}, {"type": "Feature", "geometry": {"type": "Point", "coordinates": [2.1697057, 41.3842946]}, "properties": {"name": "El Raval", "type": "restaurant"}}, {"type": "Feature", "geometry": {"type": "Point", "coordinates": [2.1699501, 41.3847824]}, "properties": {"name": "El Raval", "type": "restaurant"}}, {"type": "Feature", "geometry": {"type": "Point", "coordinates": [2.1698121, 41.3841472]}, "properties": {"name": "El Raval", "type": "restaurant"}}, {"type": "Feature", "geometry": {"type": "Point", "coordinates": [2.170138, 41.3848666]}, "properties": {"name": "El Raval", "type": "restaurant"}}, {"type": "Feature", "geometry": {"type": "Point", "coordinates": [2.1700013, 41.3842553]}, "properties": {"name": "El Raval", "type": "restaurant"}}, {"type": "Feature", "geometry": {"type": "Point", "coordinates": [2.1698748, 41.3851596]}, "properties": {"name": "El Raval", "type": "restaurant"}}, {"type": "Feature", "geometry": {"type": "Point", "coordinates": [2.1701523, 41.3843336]}, "properties": {"name": "El Raval", "type": "restaurant"}}, {"type": "Feature", "geometry": {"type": "Point", "coordinates": [2.1701056, 41.3849119]}, "properties": {"name": "El Raval", "type": "restaurant"}}, {"type": "Feature", "geometry": {"type": "Point", "coordinates": [2.1729219, 41.3843695]}, "properties": {"name": "El Barri G\u00f2tic", "type": "restaurant"}}, {"type": "Feature", "geometry": {"type": "Point", "coordinates": [2.1705237, 41.3853108]}, "properties": {"name": "El Barri G\u00f2tic", "type": "restaurant"}}, {"type": "Feature", "geometry": {"type": "Point", "coordinates": [2.1705984, 41.385205]}, "properties": {"name": "El Barri G\u00f2tic", "type": "restaurant"}}, {"type": "Feature", "geometry": {"type": "Point", "coordinates": [2.1707466, 41.3859551]}, "properties": {"name": "El Barri G\u00f2tic", "type": "restaurant"}}, {"type": "Feature", "geometry": {"type": "Point", "coordinates": [2.1715721, 41.3853036]}, "properties": {"name": "El Barri G\u00f2tic", "type": "restaurant"}}, {"type": "Feature", "geometry": {"type": "Point", "coordinates": [2.1723218, 41.3833517]}, "properties": {"name": "El Barri G\u00f2tic", "type": "restaurant"}}, {"type": "Feature", "geometry": {"type": "Point", "coordinates": [2.1724092, 41.384138]}, "properties": {"name": "El Barri G\u00f2tic", "type": "restaurant"}}, {"type": "Feature", "geometry": {"type": "Point", "coordinates": [2.1715098, 41.3847542]}, "properties": {"name": "El Barri G\u00f2tic", "type": "restaurant"}}, {"type": "Feature", "geometry": {"type": "Point", "coordinates": [2.1723407, 41.3838709]}, "properties": {"name": "El Barri G\u00f2tic", "type": "restaurant"}}, {"type": "Feature", "geometry": {"type": "Point", "coordinates": [2.1717551, 41.3846253]}, "properties": {"name": "El Barri G\u00f2tic", "type": "restaurant"}}, {"type": "Feature", "geometry": {"type": "Point", "coordinates": [2.171981, 41.384187]}, "properties": {"name": "El Barri G\u00f2tic", "type": "restaurant"}}, {"type": "Feature", "geometry": {"type": "Point", "coordinates": [2.1712092, 41.3851224]}, "properties": {"name": "El Barri G\u00f2tic", "type": "restaurant"}}, {"type": "Feature", "geometry": {"type": "Point", "coordinates": [2.174026, 41.386132]}, "properties": {"name": "El Barri G\u00f2tic", "type": "restaurant"}}, {"type": "Feature", "geometry": {"type": "Point", "coordinates": [2.1738162, 41.3857076]}, "properties": {"name": "El Barri G\u00f2tic", "type": "restaurant"}}, {"type": "Feature", "geometry": {"type": "Point", "coordinates": [2.1754046, 41.3846638]}, "properties": {"name": "El Barri G\u00f2tic", "type": "restaurant"}}, {"type": "Feature", "geometry": {"type": "Point", "coordinates": [2.1755152, 41.3854737]}, "properties": {"name": "El Barri G\u00f2tic", "type": "restaurant"}}, {"type": "Feature", "geometry": {"type": "Point", "coordinates": [2.1757337, 41.3849142]}, "properties": {"name": "El Barri G\u00f2tic", "type": "restaurant"}}, {"type": "Feature", "geometry": {"type": "Point", "coordinates": [2.1748464, 41.3861738]}, "properties": {"name": "El Barri G\u00f2tic", "type": "restaurant"}}, {"type": "Feature", "geometry": {"type": "Point", "coordinates": [2.1750684, 41.3848022]}, "properties": {"name": "El Barri G\u00f2tic", "type": "restaurant"}}, {"type": "Feature", "geometry": {"type": "Point", "coordinates": [2.1749973, 41.385069]}, "properties": {"name": "El Barri G\u00f2tic", "type": "restaurant"}}, {"type": "Feature", "geometry": {"type": "Point", "coordinates": [2.1726728, 41.3863691]}, "properties": {"name": "El Barri G\u00f2tic", "type": "restaurant"}}, {"type": "Feature", "geometry": {"type": "Point", "coordinates": [2.1738261, 41.3857903]}, "properties": {"name": "El Barri G\u00f2tic", "type": "restaurant"}}, {"type": "Feature", "geometry": {"type": "Point", "coordinates": [2.1751913, 41.3851338]}, "properties": {"name": "El Barri G\u00f2tic", "type": "restaurant"}}, {"type": "Feature", "geometry": {"type": "Point", "coordinates": [2.174473, 41.3852432]}, "properties": {"name": "El Barri G\u00f2tic", "type": "restaurant"}}, {"type": "Feature", "geometry": {"type": "Point", "coordinates": [2.17466, 41.3847]}, "properties": {"name": "El Barri G\u00f2tic", "type": "restaurant"}}, {"type": "Feature", "geometry": {"type": "Point", "coordinates": [2.174319, 41.3845837]}, "properties": {"name": "El Barri G\u00f2tic", "type": "restaurant"}}, {"type": "Feature", "geometry": {"type": "Point", "coordinates": [2.1752967, 41.3858105]}, "properties": {"name": "El Barri G\u00f2tic", "type": "restaurant"}}, {"type": "Feature", "geometry": {"type": "Point", "coordinates": [2.1753788, 41.3862659]}, "properties": {"name": "El Barri G\u00f2tic", "type": "restaurant"}}, {"type": "Feature", "geometry": {"type": "Point", "coordinates": [2.1756295, 41.3828281]}, "properties": {"name": "El Barri G\u00f2tic", "type": "restaurant"}}, {"type": "Feature", "geometry": {"type": "Point", "coordinates": [2.175238, 41.3821413]}, "properties": {"name": "El Barri G\u00f2tic", "type": "restaurant"}}, {"type": "Feature", "geometry": {"type": "Point", "coordinates": [2.1773855, 41.3831626]}, "properties": {"name": "El Barri G\u00f2tic", "type": "restaurant"}}, {"type": "Feature", "geometry": {"type": "Point", "coordinates": [2.1774383, 41.3830233]}, "properties": {"name": "El Barri G\u00f2tic", "type": "restaurant"}}, {"type": "Feature", "geometry": {"type": "Point", "coordinates": [2.1760837, 41.3825107]}, "properties": {"name": "El Barri G\u00f2tic", "type": "restaurant"}}, {"type": "Feature", "geometry": {"type": "Point", "coordinates": [2.1766628, 41.3849254]}, "properties": {"name": "El Barri G\u00f2tic", "type": "restaurant"}}, {"type": "Feature", "geometry": {"type": "Point", "coordinates": [2.1752199, 41.3830468]}, "properties": {"name": "El Barri G\u00f2tic", "type": "restaurant"}}, {"type": "Feature", "geometry": {"type": "Point", "coordinates": [2.1756639, 41.3827003]}, "properties": {"name": "El Barri G\u00f2tic", "type": "restaurant"}}, {"type": "Feature", "geometry": {"type": "Point", "coordinates": [2.1775475, 41.3846569]}, "properties": {"name": "El Barri G\u00f2tic", "type": "restaurant"}}, {"type": "Feature", "geometry": {"type": "Point", "coordinates": [2.1759851, 41.3830033]}, "properties": {"name": "El Barri G\u00f2tic", "type": "restaurant"}}, {"type": "Feature", "geometry": {"type": "Point", "coordinates": [2.1775099, 41.3846973]}, "properties": {"name": "El Barri G\u00f2tic", "type": "restaurant"}}, {"type": "Feature", "geometry": {"type": "Point", "coordinates": [2.177219, 41.3837493]}, "properties": {"name": "El Barri G\u00f2tic", "type": "restaurant"}}, {"type": "Feature", "geometry": {"type": "Point", "coordinates": [2.1765833, 41.3823086]}, "properties": {"name": "El Barri G\u00f2tic", "type": "restaurant"}}, {"type": "Feature", "geometry": {"type": "Point", "coordinates": [2.175735, 41.3827532]}, "properties": {"name": "El Barri G\u00f2tic", "type": "restaurant"}}, {"type": "Feature", "geometry": {"type": "Point", "coordinates": [2.1763476, 41.3823755]}, "properties": {"name": "El Barri G\u00f2tic", "type": "restaurant"}}, {"type": "Feature", "geometry": {"type": "Point", "coordinates": [2.1778904, 41.3831768]}, "properties": {"name": "El Barri G\u00f2tic", "type": "restaurant"}}, {"type": "Feature", "geometry": {"type": "Point", "coordinates": [2.1770783, 41.3810423]}, "properties": {"name": "El Barri G\u00f2tic", "type": "restaurant"}}, {"type": "Feature", "geometry": {"type": "Point", "coordinates": [2.1779584, 41.3815077]}, "properties": {"name": "El Barri G\u00f2tic", "type": "restaurant"}}, {"type": "Feature", "geometry": {"type": "Point", "coordinates": [2.1769112, 41.3818117]}, "properties": {"name": "El Barri G\u00f2tic", "type": "restaurant"}}, {"type": "Feature", "geometry": {"type": "Point", "coordinates": [2.17816, 41.3821]}, "properties": {"name": "El Barri G\u00f2tic", "type": "restaurant"}}, {"type": "Feature", "geometry": {"type": "Point", "coordinates": [2.1784152, 41.3818117]}, "properties": {"name": "El Barri G\u00f2tic", "type": "restaurant"}}, {"type": "Feature", "geometry": {"type": "Point", "coordinates": [2.1776754, 41.3814196]}, "properties": {"name": "El Barri G\u00f2tic", "type": "restaurant"}}, {"type": "Feature", "geometry": {"type": "Point", "coordinates": [2.1767561, 41.3822753]}, "properties": {"name": "El Barri G\u00f2tic", "type": "restaurant"}}, {"type": "Feature", "geometry": {"type": "Point", "coordinates": [2.1769976, 41.3817513]}, "properties": {"name": "El Barri G\u00f2tic", "type": "restaurant"}}, {"type": "Feature", "geometry": {"type": "Point", "coordinates": [2.1763606, 41.3819545]}, "properties": {"name": "El Barri G\u00f2tic", "type": "restaurant"}}, {"type": "Feature", "geometry": {"type": "Point", "coordinates": [2.1779781, 41.3807065]}, "properties": {"name": "El Barri G\u00f2tic", "type": "restaurant"}}, {"type": "Feature", "geometry": {"type": "Point", "coordinates": [2.1768934, 41.3821485]}, "properties": {"name": "El Barri G\u00f2tic", "type": "restaurant"}}, {"type": "Feature", "geometry": {"type": "Point", "coordinates": [2.1774484, 41.3813653]}, "properties": {"name": "El Barri G\u00f2tic", "type": "restaurant"}}, {"type": "Feature", "geometry": {"type": "Point", "coordinates": [2.1767152, 41.3815426]}, "properties": {"name": "El Barri G\u00f2tic", "type": "restaurant"}}, {"type": "Feature", "geometry": {"type": "Point", "coordinates": [2.1780994, 41.381234]}, "properties": {"name": "El Barri G\u00f2tic", "type": "restaurant"}}, {"type": "Feature", "geometry": {"type": "Point", "coordinates": [2.1783221, 41.3809552]}, "properties": {"name": "El Barri G\u00f2tic", "type": "restaurant"}}, {"type": "Feature", "geometry": {"type": "Point", "coordinates": [2.1767011, 41.3819563]}, "properties": {"name": "El Barri G\u00f2tic", "type": "restaurant"}}, {"type": "Feature", "geometry": {"type": "Point", "coordinates": [2.1744598, 41.3817497]}, "properties": {"name": "El Barri G\u00f2tic", "type": "restaurant"}}, {"type": "Feature", "geometry": {"type": "Point", "coordinates": [2.1744264, 41.3819235]}, "properties": {"name": "El Barri G\u00f2tic", "type": "restaurant"}}, {"type": "Feature", "geometry": {"type": "Point", "coordinates": [2.1744185, 41.381215]}, "properties": {"name": "El Barri G\u00f2tic", "type": "restaurant"}}, {"type": "Feature", "geometry": {"type": "Point", "coordinates": [2.1745121, 41.3818417]}, "properties": {"name": "El Barri G\u00f2tic", "type": "restaurant"}}, {"type": "Feature", "geometry": {"type": "Point", "coordinates": [2.1745986, 41.3820558]}, "properties": {"name": "El Barri G\u00f2tic", "type": "restaurant"}}, {"type": "Feature", "geometry": {"type": "Point", "coordinates": [2.174489, 41.3810629]}, "properties": {"name": "El Barri G\u00f2tic", "type": "restaurant"}}, {"type": "Feature", "geometry": {"type": "Point", "coordinates": [2.1726071, 41.3821953]}, "properties": {"name": "El Barri G\u00f2tic", "type": "restaurant"}}, {"type": "Feature", "geometry": {"type": "Point", "coordinates": [2.1734611, 41.3820592]}, "properties": {"name": "El Barri G\u00f2tic", "type": "restaurant"}}, {"type": "Feature", "geometry": {"type": "Point", "coordinates": [2.1739624, 41.3824922]}, "properties": {"name": "El Barri G\u00f2tic", "type": "restaurant"}}, {"type": "Feature", "geometry": {"type": "Point", "coordinates": [2.1747868, 41.3809206]}, "properties": {"name": "El Barri G\u00f2tic", "type": "restaurant"}}, {"type": "Feature", "geometry": {"type": "Point", "coordinates": [2.174391, 41.3831905]}, "properties": {"name": "El Barri G\u00f2tic", "type": "restaurant"}}, {"type": "Feature", "geometry": {"type": "Point", "coordinates": [2.17477, 41.38183]}, "properties": {"name": "El Barri G\u00f2tic", "type": "restaurant"}}, {"type": "Feature", "geometry": {"type": "Point", "coordinates": [2.1745099, 41.3819756]}, "properties": {"name": "El Barri G\u00f2tic", "type": "restaurant"}}, {"type": "Feature", "geometry": {"type": "Point", "coordinates": [2.1748665, 41.3841976]}, "properties": {"name": "El Barri G\u00f2tic", "type": "restaurant"}}, {"type": "Feature", "geometry": {"type": "Point", "coordinates": [2.1752739, 41.3812795]}, "properties": {"name": "El Barri G\u00f2tic", "type": "restaurant"}}, {"type": "Feature", "geometry": {"type": "Point", "coordinates": [2.1739891, 41.3825627]}, "properties": {"name": "El Barri G\u00f2tic", "type": "restaurant"}}, {"type": "Feature", "geometry": {"type": "Point", "coordinates": [2.17416, 41.3826475]}, "properties": {"name": "El Barri G\u00f2tic", "type": "restaurant"}}, {"type": "Feature", "geometry": {"type": "Point", "coordinates": [2.1757326, 41.3794062]}, "properties": {"name": "El Barri G\u00f2tic", "type": "restaurant"}}, {"type": "Feature", "geometry": {"type": "Point", "coordinates": [2.175888, 41.3800764]}, "properties": {"name": "El Barri G\u00f2tic", "type": "restaurant"}}, {"type": "Feature", "geometry": {"type": "Point", "coordinates": [2.1761311, 41.381416]}, "properties": {"name": "El Barri G\u00f2tic", "type": "restaurant"}}, {"type": "Feature", "geometry": {"type": "Point", "coordinates": [2.1749778, 41.3804529]}, "properties": {"name": "El Barri G\u00f2tic", "type": "restaurant"}}, {"type": "Feature", "geometry": {"type": "Point", "coordinates": [2.1761037, 41.3798805]}, "properties": {"name": "El Barri G\u00f2tic", "type": "restaurant"}}, {"type": "Feature", "geometry": {"type": "Point", "coordinates": [2.1748476, 41.3799799]}, "properties": {"name": "El Barri G\u00f2tic", "type": "restaurant"}}, {"type": "Feature", "geometry": {"type": "Point", "coordinates": [2.1753271, 41.3804885]}, "properties": {"name": "El Barri G\u00f2tic", "type": "restaurant"}}, {"type": "Feature", "geometry": {"type": "Point", "coordinates": [2.1770704, 41.3803667]}, "properties": {"name": "El Barri G\u00f2tic", "type": "restaurant"}}, {"type": "Feature", "geometry": {"type": "Point", "coordinates": [2.1758524, 41.379902]}, "properties": {"name": "El Barri G\u00f2tic", "type": "restaurant"}}, {"type": "Feature", "geometry": {"type": "Point", "coordinates": [2.1762764, 41.3796023]}, "properties": {"name": "El Barri G\u00f2tic", "type": "restaurant"}}, {"type": "Feature", "geometry": {"type": "Point", "coordinates": [2.1765593, 41.3798822]}, "properties": {"name": "El Barri G\u00f2tic", "type": "restaurant"}}, {"type": "Feature", "geometry": {"type": "Point", "coordinates": [2.1747194, 41.3803406]}, "properties": {"name": "El Barri G\u00f2tic", "type": "restaurant"}}, {"type": "Feature", "geometry": {"type": "Point", "coordinates": [2.1746504, 41.380221]}, "properties": {"name": "El Barri G\u00f2tic", "type": "restaurant"}}, {"type": "Feature", "geometry": {"type": "Point", "coordinates": [2.1759587, 41.381539]}, "properties": {"name": "El Barri G\u00f2tic", "type": "restaurant"}}, {"type": "Feature", "geometry": {"type": "Point", "coordinates": [2.1753859, 41.3812082]}, "properties": {"name": "El Barri G\u00f2tic", "type": "restaurant"}}, {"type": "Feature", "geometry": {"type": "Point", "coordinates": [2.175871, 41.3791775]}, "properties": {"name": "El Barri G\u00f2tic", "type": "restaurant"}}, {"type": "Feature", "geometry": {"type": "Point", "coordinates": [2.174591, 41.3799734]}, "properties": {"name": "El Barri G\u00f2tic", "type": "restaurant"}}, {"type": "Feature", "geometry": {"type": "Point", "coordinates": [2.1762117, 41.3794968]}, "properties": {"name": "El Barri G\u00f2tic", "type": "restaurant"}}, {"type": "Feature", "geometry": {"type": "Point", "coordinates": [2.176063, 41.3797776]}, "properties": {"name": "El Barri G\u00f2tic", "type": "restaurant"}}, {"type": "Feature", "geometry": {"type": "Point", "coordinates": [2.1764164, 41.3797373]}, "properties": {"name": "El Barri G\u00f2tic", "type": "restaurant"}}, {"type": "Feature", "geometry": {"type": "Point", "coordinates": [2.1759483, 41.3799819]}, "properties": {"name": "El Barri G\u00f2tic", "type": "restaurant"}}, {"type": "Feature", "geometry": {"type": "Point", "coordinates": [2.1767848, 41.3800996]}, "properties": {"name": "El Barri G\u00f2tic", "type": "restaurant"}}, {"type": "Feature", "geometry": {"type": "Point", "coordinates": [2.1770185, 41.3805703]}, "properties": {"name": "El Barri G\u00f2tic", "type": "restaurant"}}, {"type": "Feature", "geometry": {"type": "Point", "coordinates": [2.1754294, 41.3808801]}, "properties": {"name": "El Barri G\u00f2tic", "type": "restaurant"}}, {"type": "Feature", "geometry": {"type": "Point", "coordinates": [2.1753958, 41.3795214]}, "properties": {"name": "El Barri G\u00f2tic", "type": "restaurant"}}, {"type": "Feature", "geometry": {"type": "Point", "coordinates": [2.1772701, 41.3808122]}, "properties": {"name": "El Barri G\u00f2tic", "type": "restaurant"}}, {"type": "Feature", "geometry": {"type": "Point", "coordinates": [2.1764897, 41.379825]}, "properties": {"name": "El Barri G\u00f2tic", "type": "restaurant"}}, {"type": "Feature", "geometry": {"type": "Point", "coordinates": [2.1745382, 41.3800418]}, "properties": {"name": "El Barri G\u00f2tic", "type": "restaurant"}}, {"type": "Feature", "geometry": {"type": "Point", "coordinates": [2.1764257, 41.3777316]}, "properties": {"name": "El Barri G\u00f2tic", "type": "restaurant"}}, {"type": "Feature", "geometry": {"type": "Point", "coordinates": [2.1765082, 41.3796584]}, "properties": {"name": "El Barri G\u00f2tic", "type": "restaurant"}}, {"type": "Feature", "geometry": {"type": "Point", "coordinates": [2.1780848, 41.3777448]}, "properties": {"name": "El Barri G\u00f2tic", "type": "restaurant"}}, {"type": "Feature", "geometry": {"type": "Point", "coordinates": [2.1777049, 41.3771025]}, "properties": {"name": "El Barri G\u00f2tic", "type": "restaurant"}}, {"type": "Feature", "geometry": {"type": "Point", "coordinates": [2.1758361, 41.3788941]}, "properties": {"name": "El Barri G\u00f2tic", "type": "restaurant"}}, {"type": "Feature", "geometry": {"type": "Point", "coordinates": [2.1771592, 41.3802184]}, "properties": {"name": "El Barri G\u00f2tic", "type": "restaurant"}}, {"type": "Feature", "geometry": {"type": "Point", "coordinates": [2.1780111, 41.3776216]}, "properties": {"name": "El Barri G\u00f2tic", "type": "restaurant"}}, {"type": "Feature", "geometry": {"type": "Point", "coordinates": [2.1767194, 41.3798549]}, "properties": {"name": "El Barri G\u00f2tic", "type": "restaurant"}}, {"type": "Feature", "geometry": {"type": "Point", "coordinates": [2.1761073, 41.3792408]}, "properties": {"name": "El Barri G\u00f2tic", "type": "restaurant"}}, {"type": "Feature", "geometry": {"type": "Point", "coordinates": [2.1778922, 41.377457]}, "properties": {"name": "El Barri G\u00f2tic", "type": "restaurant"}}, {"type": "Feature", "geometry": {"type": "Point", "coordinates": [2.17684, 41.3799992]}, "properties": {"name": "El Barri G\u00f2tic", "type": "restaurant"}}, {"type": "Feature", "geometry": {"type": "Point", "coordinates": [2.1778033, 41.3780531]}, "properties": {"name": "El Barri G\u00f2tic", "type": "restaurant"}}, {"type": "Feature", "geometry": {"type": "Point", "coordinates": [2.1770987, 41.3792173]}, "properties": {"name": "El Barri G\u00f2tic", "type": "restaurant"}}, {"type": "Feature", "geometry": {"type": "Point", "coordinates": [2.1784062, 41.3774531]}, "properties": {"name": "El Barri G\u00f2tic", "type": "restaurant"}}, {"type": "Feature", "geometry": {"type": "Point", "coordinates": [2.1762144, 41.3793598]}, "properties": {"name": "El Barri G\u00f2tic", "type": "restaurant"}}, {"type": "Feature", "geometry": {"type": "Point", "coordinates": [2.1777523, 41.3772044]}, "properties": {"name": "El Barri G\u00f2tic", "type": "restaurant"}}, {"type": "Feature", "geometry": {"type": "Point", "coordinates": [2.1779709, 41.3804099]}, "properties": {"name": "El Barri G\u00f2tic", "type": "restaurant"}}, {"type": "Feature", "geometry": {"type": "Point", "coordinates": [2.1776952, 41.3803973]}, "properties": {"name": "El Barri G\u00f2tic", "type": "restaurant"}}, {"type": "Feature", "geometry": {"type": "Point", "coordinates": [2.177588, 41.3856176]}, "properties": {"name": "Sant Pere, Santa Caterina i la Ribera", "type": "restaurant"}}, {"type": "Feature", "geometry": {"type": "Point", "coordinates": [2.1781292, 41.385866]}, "properties": {"name": "Sant Pere, Santa Caterina i la Ribera", "type": "restaurant"}}, {"type": "Feature", "geometry": {"type": "Point", "coordinates": [2.1783604, 41.3856059]}, "properties": {"name": "Sant Pere, Santa Caterina i la Ribera", "type": "restaurant"}}, {"type": "Feature", "geometry": {"type": "Point", "coordinates": [2.1780161, 41.3861655]}, "properties": {"name": "Sant Pere, Santa Caterina i la Ribera", "type": "restaurant"}}, {"type": "Feature", "geometry": {"type": "Point", "coordinates": [2.1780191, 41.3851014]}, "properties": {"name": "Sant Pere, Santa Caterina i la Ribera", "type": "restaurant"}}, {"type": "Feature", "geometry": {"type": "Point", "coordinates": [2.1773397, 41.3851679]}, "properties": {"name": "Sant Pere, Santa Caterina i la Ribera", "type": "restaurant"}}, {"type": "Feature", "geometry": {"type": "Point", "coordinates": [2.1777853, 41.386019]}, "properties": {"name": "Sant Pere, Santa Caterina i la Ribera", "type": "restaurant"}}, {"type": "Feature", "geometry": {"type": "Point", "coordinates": [2.1775144, 41.3864282]}, "properties": {"name": "Sant Pere, Santa Caterina i la Ribera", "type": "restaurant"}}, {"type": "Feature", "geometry": {"type": "Point", "coordinates": [2.1755926, 41.3864741]}, "properties": {"name": "Sant Pere, Santa Caterina i la Ribera", "type": "restaurant"}}]}